,state,county,zip_code,Rate
0,NY,Suffolk,500,4.81
1,NY,Suffolk,6300,4.81
2,NY,Suffolk,11700,4.81
3,NY,Suffolk,11800,4.81
4,NY,Suffolk,11900,4.81
5,MA,Hampden,1000,6.77
6,MA,Hampden,1100,6.77
7,MA,Hampden,1500,6.77
8,MA,Hampshire,1000,4.42
9,MA,Hampshire,1200,4.42
10,MA,Worcester,1000,5.30
11,MA,Worcester,1300,5.30
12,MA,Worcester,1400,5.30
13,MA,Worcester,1500,5.30
14,MA,Worcester,1600,5.30
15,MA,Worcester,1700,5.30
16,MA,Berkshire,1000,5.57
17,MA,Berkshire,1200,5.57
18,MA,Berkshire,1300,5.57
19,MA,Franklin,1000,4.53
20,MA,Franklin,1300,4.53
21,MA,Middlesex,1400,4.06
22,MA,Middlesex,1700,4.06
23,MA,Middlesex,1800,4.06
24,MA,Middlesex,2100,4.06
25,MA,Middlesex,2200,4.06
26,MA,Middlesex,2400,4.06
27,MA,Essex,1800,5.17
28,MA,Essex,1900,5.17
29,MA,Essex,5500,5.17
30,MA,Plymouth,2000,5.23
31,MA,Plymouth,2300,5.23
32,MA,Plymouth,2500,5.23
33,MA,Plymouth,2700,5.23
34,MA,Norfolk,2000,4.35
35,MA,Norfolk,2100,4.35
36,MA,Norfolk,2200,4.35
37,MA,Norfolk,2300,4.35
38,MA,Norfolk,2400,4.35
39,MA,Norfolk,2700,4.35
40,MA,Bristol,2000,6.29
41,MA,Bristol,2300,6.29
42,MA,Bristol,2700,6.29
43,MA,Suffolk,2100,4.63
44,MA,Suffolk,2200,4.63
45,MA,Barnstable,2500,6.37
46,MA,Barnstable,2600,6.37
47,MA,Dukes,2500,7.20
48,MA,Dukes,2700,7.20
49,MA,Nantucket,2500,6.09
50,RI,Newport,2800,5.18
51,RI,Providence,2800,6.39
52,RI,Providence,2900,6.39
53,RI,Washington,2800,5.48
54,RI,Bristol,2800,5.09
55,RI,Kent,2800,5.51
56,NH,Hillsborough,3000,3.61
57,NH,Hillsborough,3100,3.61
58,NH,Hillsborough,3200,3.61
59,NH,Hillsborough,3400,3.61
60,NH,Rockingham,3000,3.64
61,NH,Rockingham,3200,3.64
62,NH,Rockingham,3800,3.64
63,NH,Merrimack,3000,3.12
64,NH,Merrimack,3100,3.12
65,NH,Merrimack,3200,3.12
66,NH,Merrimack,3300,3.12
67,NH,Grafton,3200,2.88
68,NH,Grafton,3500,2.88
69,NH,Grafton,3700,2.88
70,NH,Belknap,3200,3.35
71,NH,Belknap,3800,3.35
72,NH,Carroll,3200,3.59
73,NH,Carroll,3800,3.59
74,NH,Sullivan,3200,2.91
75,NH,Sullivan,3600,2.91
76,NH,Sullivan,3700,2.91
77,NH,Cheshire,3400,3.26
78,NH,Cheshire,3600,3.26
79,NH,Coos,3500,4.74
80,NH,Strafford,3800,3.13
81,ME,York,3900,3.93
82,ME,York,4000,3.93
83,ME,Cumberland,4000,3.39
84,ME,Cumberland,4100,3.39
85,ME,Cumberland,4200,3.39
86,ME,Sagadahoc,4000,3.49
87,ME,Sagadahoc,4200,3.49
88,ME,Sagadahoc,4300,3.49
89,ME,Sagadahoc,4500,3.49
90,ME,Oxford,4000,5.47
91,ME,Oxford,4200,5.47
92,ME,Androscoggin,4200,4.13
93,ME,Franklin,4200,4.77
94,ME,Franklin,4900,4.77
95,ME,Kennebec,4200,4.23
96,ME,Kennebec,4300,4.23
97,ME,Kennebec,4900,4.23
98,ME,Lincoln,4300,4.50
99,ME,Lincoln,4500,4.50
100,ME,Lincoln,4800,4.50
101,ME,Waldo,4300,5.12
102,ME,Waldo,4400,5.12
103,ME,Waldo,4800,5.12
104,ME,Waldo,4900,5.12
105,ME,Penobscot,4400,4.77
106,ME,Penobscot,4700,4.77
107,ME,Penobscot,4900,4.77
108,ME,Piscataquis,4400,5.77
109,ME,Hancock,4400,5.77
110,ME,Hancock,4600,5.77
111,ME,Washington,4400,6.66
112,ME,Washington,4600,6.66
113,ME,Aroostook,4400,5.97
114,ME,Aroostook,4700,5.97
115,ME,Somerset,4400,6.57
116,ME,Somerset,4900,6.57
117,ME,Knox,4500,4.13
118,ME,Knox,4600,4.13
119,ME,Knox,4800,4.13
120,VT,Windsor,5000,3.29
121,VT,Windsor,5100,3.29
122,VT,Windsor,5700,3.29
123,VT,Orange,5000,3.49
124,VT,Orange,5600,3.49
125,VT,Caledonia,5000,4.80
126,VT,Caledonia,5800,4.80
127,VT,Windham,5100,3.68
128,VT,Windham,5300,3.68
129,VT,Bennington,5100,4.34
130,VT,Bennington,5200,4.34
131,VT,Bennington,5300,4.34
132,VT,Bennington,5700,4.34
133,VT,Chittenden,5400,2.71
134,VT,Franklin,5400,3.67
135,VT,Lamoille,5400,4.70
136,VT,Lamoille,5600,4.70
137,VT,Addison,5400,3.66
138,VT,Addison,5600,3.66
139,VT,Addison,5700,3.66
140,VT,Washington,5600,3.57
141,VT,Rutland,5700,4.37
142,VT,Orleans,5800,5.75
143,VT,Essex,5800,6.82
144,VT,Essex,5900,6.82
145,CT,Hartford,6000,5.87
146,CT,Hartford,6100,5.87
147,CT,Hartford,6400,5.87
148,CT,Litchfield,6000,5.03
149,CT,Litchfield,6700,5.03
150,CT,Tolland,6000,4.80
151,CT,Tolland,6200,4.80
152,CT,Windham,6200,6.21
153,CT,Windham,6300,6.21
154,CT,Fairfield,6400,5.27
155,CT,Fairfield,6600,5.27
156,CT,Fairfield,6700,5.27
157,CT,Fairfield,6800,5.27
158,CT,Fairfield,6900,5.27
159,CT,Middlesex,6400,4.79
160,NJ,Middlesex,7000,4.99
161,NJ,Middlesex,8500,4.99
162,NJ,Middlesex,8800,4.99
163,NJ,Middlesex,8900,4.99
164,NJ,Hudson,7000,5.27
165,NJ,Hudson,7300,5.27
166,NJ,Essex,7000,6.72
167,NJ,Essex,7100,6.72
168,NJ,Morris,7000,4.23
169,NJ,Morris,7400,4.23
170,NJ,Morris,7800,4.23
171,NJ,Morris,7900,4.23
172,NJ,Bergen,7000,4.56
173,NJ,Bergen,7400,4.56
174,NJ,Bergen,7600,4.56
175,NJ,Passaic,7000,6.87
176,NJ,Passaic,7400,6.87
177,NJ,Passaic,7500,6.87
178,NJ,Union,7000,5.85
179,NJ,Union,7200,5.85
180,NJ,Union,7900,5.85
181,NJ,Somerset,7000,4.43
182,NJ,Somerset,7900,4.43
183,NJ,Somerset,8500,4.43
184,NJ,Somerset,8800,4.43
185,NJ,Sussex,7400,5.26
186,NJ,Sussex,7800,5.26
187,NJ,Monmouth,7700,4.98
188,NJ,Monmouth,8500,4.98
189,NJ,Monmouth,8700,4.98
190,NJ,Warren,7800,5.23
191,NJ,Warren,8800,5.23
192,NJ,Hunterdon,7800,4.10
193,NJ,Hunterdon,7900,4.10
194,NJ,Hunterdon,8500,4.10
195,NJ,Hunterdon,8800,4.10
196,NJ,Salem,8000,7.07
197,NJ,Salem,8300,7.07
198,NJ,Camden,8000,6.29
199,NJ,Camden,8100,6.29
200,NJ,Ocean,8000,6.02
201,NJ,Ocean,8500,6.02
202,NJ,Ocean,8700,6.02
203,NJ,Burlington,8000,5.19
204,NJ,Burlington,8200,5.19
205,NJ,Burlington,8500,5.19
206,NJ,Burlington,8600,5.19
207,NJ,Gloucester,8000,5.93
208,NJ,Gloucester,8300,5.93
209,NJ,Atlantic,8000,9.37
210,NJ,Atlantic,8200,9.37
211,NJ,Atlantic,8300,9.37
212,NJ,Atlantic,8400,9.37
213,NJ,Cumberland,8300,8.64
214,NJ,Mercer,8500,4.82
215,NJ,Mercer,8600,4.82
216,NY,Richmond,10300,5.75
217,NY,Bronx,10400,7.74
218,NY,Westchester,10500,4.61
219,NY,Westchester,10600,4.61
220,NY,Westchester,10700,4.61
221,NY,Westchester,10800,4.61
222,NY,Putnam,10500,4.34
223,NY,Putnam,12500,4.34
224,NY,Rockland,10900,4.59
225,NY,Orange,10900,4.72
226,NY,Orange,12500,4.72
227,NY,Orange,12700,4.72
228,NY,Nassau,11000,4.32
229,NY,Nassau,11500,4.32
230,NY,Nassau,11700,4.32
231,NY,Nassau,11800,4.32
232,NY,Queens,11000,4.98
233,NY,Queens,11100,4.98
234,NY,Queens,11300,4.98
235,NY,Queens,11400,4.98
236,NY,Queens,11600,4.98
237,NY,Kings,11200,5.87
238,NY,Albany,12000,4.41
239,NY,Albany,12100,4.41
240,NY,Albany,12200,4.41
241,NY,Albany,12400,4.41
242,NY,Schenectady,12000,4.76
243,NY,Schenectady,12100,4.76
244,NY,Schenectady,12300,4.76
245,NY,Montgomery,12000,6.69
246,NY,Montgomery,12100,6.69
247,NY,Montgomery,13300,6.69
248,NY,Montgomery,13400,6.69
249,NY,Greene,12000,5.76
250,NY,Greene,12100,5.76
251,NY,Greene,12400,5.76
252,NY,Columbia,12000,4.06
253,NY,Columbia,12100,4.06
254,NY,Columbia,12500,4.06
255,NY,Rensselaer,12000,4.73
256,NY,Rensselaer,12100,4.73
257,NY,Saratoga,12000,4.23
258,NY,Saratoga,12100,4.23
259,NY,Saratoga,12800,4.23
260,NY,Fulton,12000,6.54
261,NY,Fulton,12100,6.54
262,NY,Fulton,13400,6.54
263,NY,Schoharie,12000,5.83
264,NY,Schoharie,12100,5.83
265,NY,Schoharie,13400,5.83
266,NY,Washington,12000,5.14
267,NY,Washington,12800,5.14
268,NY,Otsego,12000,5.34
269,NY,Otsego,12100,5.34
270,NY,Otsego,13300,5.34
271,NY,Otsego,13400,5.34
272,NY,Otsego,13700,5.34
273,NY,Otsego,13800,5.34
274,NY,Hamilton,12100,6.93
275,NY,Hamilton,12800,6.93
276,NY,Hamilton,13300,6.93
277,NY,Hamilton,13400,6.93
278,NY,Delaware,12100,6.04
279,NY,Delaware,12400,6.04
280,NY,Delaware,13700,6.04
281,NY,Delaware,13800,6.04
282,NY,Ulster,12400,4.92
283,NY,Ulster,12500,4.92
284,NY,Ulster,12700,4.92
285,NY,Dutchess,12500,4.58
286,NY,Dutchess,12600,4.58
287,NY,Sullivan,12700,5.55
288,NY,Warren,12800,5.64
289,NY,Essex,12800,6.12
290,NY,Essex,12900,6.12
291,NY,Clinton,12900,5.94
292,NY,Franklin,12900,6.52
293,NY,Franklin,13600,6.52
294,NY,Onondaga,13000,4.97
295,NY,Onondaga,13100,4.97
296,NY,Onondaga,13200,4.97
297,NY,Cayuga,13000,5.41
298,NY,Cayuga,13100,5.41
299,NY,Oswego,13000,7.22
300,NY,Oswego,13100,7.22
301,NY,Oswego,13300,7.22
302,NY,Oswego,13400,7.22
303,NY,Madison,13000,5.69
304,NY,Madison,13100,5.69
305,NY,Madison,13300,5.69
306,NY,Madison,13400,5.69
307,NY,Cortland,13000,5.87
308,NY,Cortland,13100,5.87
309,NY,Cortland,13700,5.87
310,NY,Cortland,13800,5.87
311,NY,Tompkins,13000,4.08
312,NY,Tompkins,13100,4.08
313,NY,Tompkins,14800,4.08
314,NY,Oneida,13000,5.38
315,NY,Oneida,13100,5.38
316,NY,Oneida,13300,5.38
317,NY,Oneida,13400,5.38
318,NY,Oneida,13500,5.38
319,NY,Seneca,13000,5.22
320,NY,Seneca,13100,5.22
321,NY,Seneca,14500,5.22
322,NY,Seneca,14800,5.22
323,NY,Chenango,13100,5.58
324,NY,Chenango,13300,5.58
325,NY,Chenango,13400,5.58
326,NY,Chenango,13700,5.58
327,NY,Chenango,13800,5.58
328,NY,Wayne,13100,5.43
329,NY,Wayne,14400,5.43
330,NY,Wayne,14500,5.43
331,NY,Lewis,13300,7.08
332,NY,Lewis,13400,7.08
333,NY,Lewis,13600,7.08
334,NY,Herkimer,13300,6.27
335,NY,Herkimer,13400,6.27
336,NY,Jefferson,13600,6.77
337,NY,Tioga,13700,5.63
338,NY,Tioga,13800,5.63
339,NY,Tioga,14800,5.63
340,NY,Broome,13700,6.07
341,NY,Broome,13800,6.07
342,NY,Broome,13900,6.07
343,NY,Erie,14000,5.43
344,NY,Erie,14100,5.43
345,NY,Erie,14200,5.43
346,NY,Genesee,14000,5.07
347,NY,Genesee,14100,5.07
348,NY,Genesee,14400,5.07
349,NY,Genesee,14500,5.07
350,NY,Niagara,14000,6.24
351,NY,Niagara,14100,6.24
352,NY,Niagara,14300,6.24
353,NY,Wyoming,14000,5.75
354,NY,Wyoming,14100,5.75
355,NY,Wyoming,14400,5.75
356,NY,Wyoming,14500,5.75
357,NY,Allegany,14000,5.77
358,NY,Allegany,14700,5.77
359,NY,Allegany,14800,5.77
360,NY,Cattaraugus,14000,6.19
361,NY,Cattaraugus,14100,6.19
362,NY,Cattaraugus,14700,6.19
363,NY,Chautauqua,14000,6.14
364,NY,Chautauqua,14100,6.14
365,NY,Chautauqua,14700,6.14
366,NY,Orleans,14000,6.47
367,NY,Orleans,14100,6.47
368,NY,Orleans,14400,6.47
369,NY,Orleans,14500,6.47
370,NY,Monroe,14400,5.15
371,NY,Monroe,14500,5.15
372,NY,Monroe,14600,5.15
373,NY,Livingston,14400,5.36
374,NY,Livingston,14500,5.36
375,NY,Livingston,14800,5.36
376,NY,Yates,14400,5.04
377,NY,Yates,14500,5.04
378,NY,Yates,14800,5.04
379,NY,Ontario,14400,4.80
380,NY,Ontario,14500,4.80
381,NY,Steuben,14500,6.39
382,NY,Steuben,14800,6.39
383,NY,Schuyler,14800,6.58
384,NY,Chemung,14800,5.90
385,NY,Chemung,14900,5.90
386,PA,Beaver,15000,5.87
387,PA,Beaver,16100,5.87
388,PA,Washington,15000,5.39
389,PA,Washington,15300,5.39
390,PA,Washington,15400,5.39
391,PA,Allegheny,15000,4.81
392,PA,Allegheny,15100,4.81
393,PA,Allegheny,15200,4.81
394,PA,Fayette,15000,7.26
395,PA,Fayette,15400,7.26
396,PA,Fayette,15600,7.26
397,PA,Westmoreland,15000,5.22
398,PA,Westmoreland,15400,5.22
399,PA,Westmoreland,15600,5.22
400,PA,Westmoreland,15700,5.22
401,PA,Westmoreland,15900,5.22
402,PA,Greene,15300,5.78
403,PA,Somerset,15400,6.64
404,PA,Somerset,15500,6.64
405,PA,Somerset,15900,6.64
406,PA,Bedford,15500,5.90
407,PA,Bedford,16600,5.90
408,PA,Bedford,17200,5.90
409,PA,Fulton,15500,6.01
410,PA,Fulton,16600,6.01
411,PA,Fulton,17200,6.01
412,PA,Armstrong,15600,6.38
413,PA,Armstrong,15700,6.38
414,PA,Armstrong,16000,6.38
415,PA,Armstrong,16200,6.38
416,PA,Indiana,15600,6.12
417,PA,Indiana,15700,6.12
418,PA,Indiana,15900,6.12
419,PA,Indiana,16200,6.12
420,PA,Jefferson,15700,5.91
421,PA,Jefferson,15800,5.91
422,PA,Cambria,15700,6.38
423,PA,Cambria,15900,6.38
424,PA,Cambria,16600,6.38
425,PA,Clearfield,15700,6.44
426,PA,Clearfield,15800,6.44
427,PA,Clearfield,16600,6.44
428,PA,Clearfield,16800,6.44
429,PA,Elk,15800,4.80
430,PA,Elk,16700,4.80
431,PA,Forest,15800,7.67
432,PA,Forest,16200,7.67
433,PA,Forest,16300,7.67
434,PA,Cameron,15800,6.94
435,PA,Butler,16000,4.58
436,PA,Clarion,16000,5.70
437,PA,Clarion,16200,5.70
438,PA,Clarion,16300,5.70
439,PA,Lawrence,16100,6.13
440,PA,Crawford,16100,5.04
441,PA,Crawford,16300,5.04
442,PA,Crawford,16400,5.04
443,PA,Mercer,16100,5.31
444,PA,Mercer,16300,5.31
445,PA,Venango,16300,5.77
446,PA,Warren,16300,4.85
447,PA,Warren,16400,4.85
448,PA,Mckean,16300,5.90
449,PA,Mckean,16700,5.90
450,PA,Erie,16400,5.33
451,PA,Erie,16500,5.33
452,PA,Blair,16600,5.00
453,PA,Huntingdon,16600,6.82
454,PA,Huntingdon,16800,6.82
455,PA,Huntingdon,17000,6.82
456,PA,Huntingdon,17200,6.82
457,PA,Centre,16600,3.83
458,PA,Centre,16800,3.83
459,PA,Potter,16700,6.75
460,PA,Potter,16900,6.75
461,PA,Potter,17700,6.75
462,PA,Clinton,16800,6.69
463,PA,Clinton,17700,6.69
464,PA,Tioga,16900,6.33
465,PA,Tioga,17700,6.33
466,PA,Bradford,16900,5.70
467,PA,Bradford,17700,5.70
468,PA,Bradford,18800,5.70
469,PA,Cumberland,17000,3.88
470,PA,Cumberland,17200,3.88
471,PA,Mifflin,17000,5.57
472,PA,Lebanon,17000,4.39
473,PA,Dauphin,17000,4.50
474,PA,Dauphin,17100,4.50
475,PA,Perry,17000,4.32
476,PA,Juniata,17000,4.78
477,PA,Northumberland,17000,5.92
478,PA,Northumberland,17700,5.92
479,PA,Northumberland,17800,5.92
480,PA,York,17000,4.59
481,PA,York,17300,4.59
482,PA,York,17400,4.59
483,PA,Lancaster,17000,3.99
484,PA,Lancaster,17500,3.99
485,PA,Lancaster,17600,3.99
486,PA,Lancaster,19500,3.99
487,PA,Franklin,17200,4.77
488,PA,Adams,17300,4.06
489,PA,Lycoming,17700,5.87
490,PA,Sullivan,17700,5.97
491,PA,Sullivan,18600,5.97
492,PA,Union,17800,4.32
493,PA,Snyder,17800,4.54
494,PA,Columbia,17800,5.49
495,PA,Columbia,17900,5.49
496,PA,Columbia,18600,5.49
497,PA,Montour,17800,4.18
498,PA,Schuylkill,17900,6.10
499,PA,Schuylkill,18200,6.10
500,PA,Schuylkill,19500,6.10
501,PA,Northampton,18000,5.12
502,PA,Northampton,18300,5.12
503,PA,Lehigh,18000,5.20
504,PA,Lehigh,18100,5.20
505,PA,Carbon,18000,5.83
506,PA,Carbon,18200,5.83
507,PA,Carbon,18600,5.83
508,PA,Bucks,18000,4.52
509,PA,Bucks,18900,4.52
510,PA,Bucks,19000,4.52
511,PA,Montgomery,18000,4.02
512,PA,Montgomery,18900,4.02
513,PA,Montgomery,19000,4.02
514,PA,Montgomery,19400,4.02
515,PA,Montgomery,19500,4.02
516,PA,Berks,18000,4.76
517,PA,Berks,19500,4.76
518,PA,Berks,19600,4.76
519,PA,Monroe,18000,6.24
520,PA,Monroe,18300,6.24
521,PA,Monroe,18400,6.24
522,PA,Monroe,18600,6.24
523,PA,Luzerne,18200,6.29
524,PA,Luzerne,18600,6.29
525,PA,Luzerne,18700,6.29
526,PA,Pike,18300,6.29
527,PA,Pike,18400,6.29
528,PA,Wayne,18400,5.67
529,PA,Lackawanna,18400,5.68
530,PA,Lackawanna,18500,5.68
531,PA,Lackawanna,18600,5.68
532,PA,Susquehanna,18400,5.41
533,PA,Susquehanna,18800,5.41
534,PA,Wyoming,18400,5.90
535,PA,Wyoming,18600,5.90
536,PA,Delaware,19000,4.73
537,PA,Delaware,19100,4.73
538,PA,Delaware,19300,4.73
539,PA,Philadelphia,19000,6.87
540,PA,Philadelphia,19100,6.87
541,PA,Philadelphia,19200,6.87
542,PA,Chester,19300,3.69
543,PA,Chester,19400,3.69
544,PA,Chester,19500,3.69
545,DE,Kent,19900,5.40
546,DE,Sussex,19900,4.98
547,VA,Loudoun,20100,3.57
548,VA,Loudoun,22000,3.57
549,VA,Rappahannock,20100,4.09
550,VA,Rappahannock,22000,4.09
551,VA,Rappahannock,22600,4.09
552,VA,Rappahannock,22700,4.09
553,VA,Manassas City,20100,4.13
554,VA,Manassas Park City,20100,4.18
555,VA,Fauquier,20100,3.93
556,VA,Fauquier,22600,3.93
557,VA,Fauquier,22700,3.93
558,VA,Fairfax,20100,3.57
559,VA,Fairfax,22000,3.57
560,VA,Fairfax,22100,3.57
561,VA,Fairfax,22300,3.57
562,VA,Prince William,20100,4.11
563,VA,Prince William,22000,4.11
564,VA,Prince William,22100,4.11
565,MD,Charles,20600,5.08
566,MD,Calvert,20600,4.66
567,MD,Calvert,20700,4.66
568,MD,Howard,20700,3.92
569,MD,Howard,21000,3.92
570,MD,Howard,21100,3.92
571,MD,Howard,21700,3.92
572,MD,Montgomery,20800,3.98
573,MD,Montgomery,20900,3.98
574,MD,Harford,21000,5.03
575,MD,Harford,21100,5.03
576,MD,Baltimore,21000,5.45
577,MD,Baltimore,21100,5.45
578,MD,Baltimore,21200,5.45
579,MD,Carroll,21000,4.30
580,MD,Carroll,21100,4.30
581,MD,Carroll,21700,4.30
582,MD,Baltimore City,21200,7.71
583,MD,Allegany,21500,7.04
584,MD,Allegany,21700,7.04
585,MD,Garrett,21500,6.51
586,MD,Talbot,21600,5.09
587,MD,Caroline,21600,5.59
588,MD,Kent,21600,5.47
589,MD,Dorchester,21600,7.37
590,MD,Dorchester,21800,7.37
591,MD,Frederick,21700,4.53
592,MD,Washington,21700,5.79
593,MD,Wicomico,21800,6.87
594,MD,Worcester,21800,10.63
595,MD,Somerset,21800,8.28
596,MD,Cecil,21900,6.02
597,VA,Fairfax City,22000,3.43
598,VA,Falls Church City,22000,3.03
599,VA,Arlington,22200,2.82
600,VA,Alexandria City,22300,3.29
601,VA,Fredericksburg City,22400,5.32
602,VA,Stafford,22400,4.48
603,VA,Stafford,22500,4.48
604,VA,Spotsylvania,22400,4.61
605,VA,Spotsylvania,22500,4.61
606,VA,Caroline,22400,5.05
607,VA,Caroline,22500,5.05
608,VA,Northumberland,22400,6.16
609,VA,Northumberland,22500,6.16
610,VA,Orange,22400,4.58
611,VA,Orange,22500,4.58
612,VA,Orange,22900,4.58
613,VA,Essex,22400,5.42
614,VA,Essex,22500,5.42
615,VA,Essex,23100,5.42
616,VA,Westmoreland,22400,5.41
617,VA,Westmoreland,22500,5.41
618,VA,King George,22400,4.73
619,VA,King George,22500,4.73
620,VA,Richmond,22400,4.55
621,VA,Richmond,22500,4.55
622,VA,Lancaster,22400,6.72
623,VA,Lancaster,22500,6.72
624,VA,Winchester City,22600,4.33
625,VA,Frederick,22600,3.95
626,VA,Warren,22600,4.74
627,VA,Clarke,22600,3.93
628,VA,Shenandoah,22600,4.27
629,VA,Shenandoah,22800,4.27
630,VA,Page,22600,6.96
631,VA,Page,22800,6.96
632,VA,Culpeper,22700,4.33
633,VA,Madison,22700,3.49
634,VA,Madison,22900,3.49
635,VA,Harrisonburg City,22800,5.29
636,VA,Rockingham,22800,4.13
637,VA,Rockingham,24400,4.13
638,VA,Augusta,22800,4.10
639,VA,Augusta,22900,4.10
640,VA,Augusta,24400,4.10
641,VA,Albemarle,22900,3.85
642,VA,Albemarle,24500,3.85
643,VA,Charlottesville City,22900,3.70
644,VA,Nelson,22900,4.02
645,VA,Nelson,24400,4.02
646,VA,Nelson,24500,4.02
647,VA,Greene,22900,3.67
648,VA,Fluvanna,22900,3.73
649,VA,Fluvanna,23000,3.73
650,VA,Waynesboro City,22900,4.74
651,VA,Gloucester,23000,4.08
652,VA,Gloucester,23100,4.08
653,VA,Amelia,23000,4.44
654,VA,Amelia,23100,4.44
655,VA,Buckingham,23000,5.84
656,VA,Buckingham,23100,5.84
657,VA,Buckingham,23900,5.84
658,VA,Hanover,23000,3.86
659,VA,Hanover,23100,3.86
660,VA,King William,23000,4.21
661,VA,King William,23100,4.21
662,VA,New Kent,23000,3.80
663,VA,New Kent,23100,3.80
664,VA,Goochland,23000,4.13
665,VA,Goochland,23100,4.13
666,VA,Goochland,23200,4.13
667,VA,Mathews,23000,4.18
668,VA,Mathews,23100,4.18
669,VA,King And Queen,23000,4.83
670,VA,King And Queen,23100,4.83
671,VA,Louisa,23000,4.24
672,VA,Louisa,23100,4.24
673,VA,Cumberland,23000,5.26
674,VA,Charles City,23000,5.24
675,VA,Charles City,23100,5.24
676,VA,Middlesex,23000,4.31
677,VA,Middlesex,23100,4.31
678,VA,Henrico,23000,4.28
679,VA,Henrico,23100,4.28
680,VA,Henrico,23200,4.28
681,VA,James City,23000,4.30
682,VA,James City,23100,4.30
683,VA,York,23000,4.32
684,VA,York,23600,4.32
685,VA,Powhatan,23100,3.91
686,VA,Chesterfield,23100,4.29
687,VA,Chesterfield,23200,4.29
688,VA,Chesterfield,23800,4.29
689,VA,Richmond City,23100,5.20
690,VA,Richmond City,23200,5.20
691,VA,Williamsburg City,23100,6.34
692,VA,Accomack,23300,5.46
693,VA,Accomack,23400,5.46
694,VA,Isle Of Wight,23300,4.58
695,VA,Isle Of Wight,23400,4.58
696,VA,Isle Of Wight,23800,4.58
697,VA,Northampton,23300,6.14
698,VA,Northampton,23400,6.14
699,VA,Chesapeake City,23300,4.55
700,VA,Suffolk City,23400,4.96
701,VA,Virginia Beach City,23400,4.28
702,VA,Virginia Beach City,23500,4.28
703,VA,Norfolk City,23500,5.58
704,VA,Newport News City,23600,5.39
705,VA,Hampton City,23600,5.97
706,VA,Poquoson City,23600,3.83
707,VA,Portsmouth City,23700,6.23
708,VA,Prince George,23800,5.34
709,VA,Petersburg City,23800,9.03
710,VA,Brunswick,23800,6.79
711,VA,Brunswick,23900,6.79
712,VA,Dinwiddie,23800,5.34
713,VA,Nottoway,23800,4.52
714,VA,Nottoway,23900,4.52
715,VA,Southampton,23800,4.02
716,VA,Colonial Heights City,23800,4.72
717,VA,Surry,23800,5.18
718,VA,Emporia City,23800,7.02
719,VA,Franklin City,23800,6.75
720,VA,Hopewell City,23800,7.51
721,VA,Sussex,23800,6.77
722,VA,Greensville,23800,5.38
723,VA,Prince Edward,23900,6.45
724,VA,Mecklenburg,23900,6.16
725,VA,Mecklenburg,24500,6.16
726,VA,Charlotte,23900,5.74
727,VA,Lunenburg,23900,5.21
728,VA,Appomattox,23900,4.86
729,VA,Appomattox,24500,4.86
730,VA,Roanoke City,24000,4.86
731,VA,Roanoke,24000,3.91
732,VA,Roanoke,24100,3.91
733,VA,Botetourt,24000,4.16
734,VA,Botetourt,24100,4.16
735,VA,Botetourt,24400,4.16
736,VA,Montgomery,24000,4.32
737,VA,Montgomery,24100,4.32
738,VA,Patrick,24000,5.49
739,VA,Patrick,24100,5.49
740,VA,Henry,24000,6.48
741,VA,Henry,24100,6.48
742,VA,Pulaski,24000,5.02
743,VA,Pulaski,24100,5.02
744,VA,Pulaski,24300,5.02
745,VA,Franklin,24000,4.64
746,VA,Franklin,24100,4.64
747,VA,Pittsylvania,24000,5.34
748,VA,Pittsylvania,24100,5.34
749,VA,Pittsylvania,24500,5.34
750,VA,Floyd,24000,3.98
751,VA,Floyd,24100,3.98
752,VA,Floyd,24300,3.98
753,VA,Giles,24000,5.13
754,VA,Giles,24100,5.13
755,VA,Bedford,24000,4.44
756,VA,Bedford,24100,4.44
757,VA,Bedford,24500,4.44
758,VA,Martinsville City,24100,8.79
759,VA,Craig,24100,5.48
760,VA,Radford,24100,5.65
761,VA,Salem,24100,4.38
762,VA,Bristol,24200,5.31
763,VA,Washington,24200,4.80
764,VA,Washington,24300,4.80
765,VA,Wise,24200,8.29
766,VA,Dickenson,24200,10.07
767,VA,Dickenson,24600,10.07
768,VA,Lee,24200,7.23
769,VA,Russell,24200,6.48
770,VA,Russell,24600,6.48
771,VA,Buchanan,24200,10.77
772,VA,Buchanan,24600,10.77
773,VA,Scott,24200,5.13
774,VA,Norton City,24200,6.95
775,VA,Grayson,24200,5.82
776,VA,Grayson,24300,5.82
777,VA,Smyth,24300,6.47
778,VA,Wythe,24300,5.43
779,VA,Bland,24300,5.78
780,VA,Carroll,24300,5.34
781,VA,Galax City,24300,5.52
782,VA,Tazewell,24300,7.48
783,VA,Tazewell,24600,7.48
784,VA,Staunton City,24400,4.38
785,VA,Bath,24400,4.08
786,VA,Highland,24400,3.54
787,VA,Rockbridge,24400,4.98
788,VA,Rockbridge,24500,4.98
789,VA,Buena Vista City,24400,5.20
790,VA,Covington City,24400,6.06
791,VA,Alleghany,24400,5.08
792,VA,Lexington City,24400,7.50
793,VA,Lynchburg City,24500,5.56
794,VA,Campbell,24500,4.75
795,VA,Halifax,24500,6.38
796,VA,Amherst,24500,4.76
797,VA,Danville City,24500,7.32
798,WV,Mercer,24700,7.31
799,WV,Mercer,25800,7.31
800,WV,Mercer,25900,7.31
801,WV,Wyoming,24700,9.68
802,WV,Wyoming,24800,9.68
803,WV,Wyoming,25800,9.68
804,WV,Wyoming,25900,9.68
805,WV,Mcdowell,24800,12.96
806,WV,Mingo,24800,13.13
807,WV,Mingo,25600,13.13
808,WV,Greenbrier,24900,6.57
809,WV,Greenbrier,25900,6.57
810,WV,Pocahontas,24900,8.28
811,WV,Pocahontas,26200,8.28
812,WV,Monroe,24900,5.58
813,WV,Summers,24900,7.04
814,WV,Summers,25900,7.04
815,WV,Fayette,25000,8.54
816,WV,Fayette,25100,8.54
817,WV,Fayette,25800,8.54
818,WV,Fayette,25900,8.54
819,WV,Fayette,26600,8.54
820,WV,Kanawha,25000,5.97
821,WV,Kanawha,25100,5.97
822,WV,Kanawha,25200,5.97
823,WV,Kanawha,25300,5.97
824,WV,Raleigh,25000,7.33
825,WV,Raleigh,25100,7.33
826,WV,Raleigh,25800,7.33
827,WV,Raleigh,25900,7.33
828,WV,Roane,25000,11.47
829,WV,Roane,25200,11.47
830,WV,Boone,25000,9.61
831,WV,Boone,25100,9.61
832,WV,Boone,25200,9.61
833,WV,Boone,25500,9.61
834,WV,Putnam,25000,5.55
835,WV,Putnam,25100,5.55
836,WV,Putnam,25200,5.55
837,WV,Putnam,25500,5.55
838,WV,Clay,25000,11.14
839,WV,Clay,25100,11.14
840,WV,Clay,25200,11.14
841,WV,Clay,26600,11.14
842,WV,Logan,25000,11.35
843,WV,Logan,25100,11.35
844,WV,Logan,25500,11.35
845,WV,Logan,25600,11.35
846,WV,Nicholas,25000,9.13
847,WV,Nicholas,26200,9.13
848,WV,Nicholas,26600,9.13
849,WV,Mason,25000,8.53
850,WV,Mason,25100,8.53
851,WV,Mason,25200,8.53
852,WV,Mason,25500,8.53
853,WV,Jackson,25200,7.17
854,WV,Jackson,26100,7.17
855,WV,Calhoun,25200,12.50
856,WV,Calhoun,26100,12.50
857,WV,Gilmer,25200,7.83
858,WV,Gilmer,26300,7.83
859,WV,Gilmer,26400,7.83
860,WV,Gilmer,26600,7.83
861,WV,Berkeley,25400,5.00
862,WV,Jefferson,25400,4.11
863,WV,Morgan,25400,5.54
864,WV,Hampshire,25400,5.56
865,WV,Hampshire,26700,5.56
866,WV,Hampshire,26800,5.56
867,WV,Lincoln,25500,9.65
868,WV,Cabell,25500,5.37
869,WV,Cabell,25700,5.37
870,WV,Wayne,25500,7.03
871,WV,Wayne,25600,7.03
872,WV,Wayne,25700,7.03
873,WV,Ohio,26000,5.61
874,WV,Brooke,26000,7.32
875,WV,Marshall,26000,8.42
876,WV,Hancock,26000,7.77
877,WV,Wood,26100,6.23
878,WV,Pleasants,26100,8.49
879,WV,Tyler,26100,9.37
880,WV,Tyler,26300,9.37
881,WV,Tyler,26400,9.37
882,WV,Wirt,26100,10.25
883,WV,Ritchie,26100,7.03
884,WV,Ritchie,26300,7.03
885,WV,Ritchie,26400,7.03
886,WV,Wetzel,26100,10.03
887,WV,Wetzel,26300,10.03
888,WV,Wetzel,26400,10.03
889,WV,Wetzel,26500,10.03
890,WV,Upshur,26200,8.03
891,WV,Webster,26200,7.68
892,WV,Randolph,26200,7.05
893,WV,Barbour,26200,7.36
894,WV,Barbour,26300,7.36
895,WV,Barbour,26400,7.36
896,WV,Tucker,26200,6.13
897,WV,Harrison,26300,6.34
898,WV,Harrison,26400,6.34
899,WV,Harrison,26500,6.34
900,WV,Lewis,26300,8.23
901,WV,Lewis,26400,8.23
902,WV,Doddridge,26300,5.74
903,WV,Doddridge,26400,5.74
904,WV,Braxton,26300,9.02
905,WV,Braxton,26600,9.02
906,WV,Taylor,26300,6.01
907,WV,Taylor,26400,6.01
908,WV,Preston,26300,6.17
909,WV,Preston,26400,6.17
910,WV,Preston,26500,6.17
911,WV,Preston,26700,6.17
912,WV,Monongalia,26500,4.71
913,WV,Marion,26500,6.87
914,WV,Grant,26700,7.63
915,WV,Grant,26800,7.63
916,WV,Mineral,26700,7.26
917,WV,Hardy,26800,7.54
918,WV,Pendleton,26800,4.73
919,NC,Davie,27000,5.04
920,NC,Surry,27000,5.47
921,NC,Surry,28600,5.47
922,NC,Forsyth,27000,5.50
923,NC,Forsyth,27100,5.50
924,NC,Forsyth,27200,5.50
925,NC,Yadkin,27000,5.00
926,NC,Yadkin,28600,5.00
927,NC,Rowan,27000,6.03
928,NC,Rowan,28000,6.03
929,NC,Rowan,28100,6.03
930,NC,Stokes,27000,5.40
931,NC,Rockingham,27000,6.57
932,NC,Rockingham,27200,6.57
933,NC,Rockingham,27300,6.57
934,NC,Alamance,27200,5.33
935,NC,Alamance,27300,5.33
936,NC,Randolph,27200,5.66
937,NC,Randolph,27300,5.66
938,NC,Chatham,27200,4.76
939,NC,Chatham,27300,4.76
940,NC,Chatham,27500,4.76
941,NC,Montgomery,27200,5.68
942,NC,Montgomery,27300,5.68
943,NC,Caswell,27200,6.39
944,NC,Caswell,27300,6.39
945,NC,Guilford,27200,5.88
946,NC,Guilford,27300,5.88
947,NC,Guilford,27400,5.88
948,NC,Orange,27200,4.60
949,NC,Orange,27500,4.60
950,NC,Lee,27200,7.27
951,NC,Lee,27300,7.27
952,NC,Lee,27500,7.27
953,NC,Lee,28300,7.27
954,NC,Davidson,27200,5.54
955,NC,Davidson,27300,5.54
956,NC,Moore,27200,5.82
957,NC,Moore,27300,5.82
958,NC,Moore,28300,5.82
959,NC,Person,27300,6.72
960,NC,Person,27500,6.72
961,NC,Harnett,27500,6.73
962,NC,Harnett,28300,6.73
963,NC,Wake,27500,4.64
964,NC,Wake,27600,4.64
965,NC,Durham,27500,5.01
966,NC,Durham,27700,5.01
967,NC,Johnston,27500,5.15
968,NC,Granville,27500,4.99
969,NC,Franklin,27500,5.85
970,NC,Wayne,27500,6.10
971,NC,Wayne,27800,6.10
972,NC,Wayne,28300,6.10
973,NC,Wayne,28500,6.10
974,NC,Vance,27500,8.61
975,NC,Warren,27500,8.36
976,NC,Edgecombe,27800,9.62
977,NC,Nash,27800,7.34
978,NC,Bertie,27800,7.27
979,NC,Bertie,27900,7.27
980,NC,Beaufort,27800,6.62
981,NC,Pitt,27800,6.09
982,NC,Pitt,28500,6.09
983,NC,Wilson,27800,9.56
984,NC,Hertford,27800,7.08
985,NC,Hertford,27900,7.08
986,NC,Northampton,27800,7.65
987,NC,Halifax,27800,8.88
988,NC,Hyde,27800,9.23
989,NC,Hyde,27900,9.23
990,NC,Martin,27800,7.71
991,NC,Greene,27800,5.53
992,NC,Greene,28500,5.53
993,NC,Pasquotank,27900,7.38
994,NC,Dare,27900,7.72
995,NC,Currituck,27900,5.87
996,NC,Perquimans,27900,7.13
997,NC,Camden,27900,5.79
998,NC,Tyrrell,27900,9.48
999,NC,Gates,27900,5.51
1000,NC,Washington,27900,8.82
1001,NC,Chowan,27900,7.24
1002,NC,Stanly,28000,5.34
1003,NC,Stanly,28100,5.34
1004,NC,Gaston,28000,5.98
1005,NC,Gaston,28100,5.98
1006,NC,Anson,28000,6.56
1007,NC,Anson,28100,6.56
1008,NC,Iredell,28000,5.47
1009,NC,Iredell,28100,5.47
1010,NC,Iredell,28600,5.47
1011,NC,Cleveland,28000,6.45
1012,NC,Cleveland,28100,6.45
1013,NC,Rutherford,28000,7.84
1014,NC,Rutherford,28100,7.84
1015,NC,Rutherford,28700,7.84
1016,NC,Cabarrus,28000,5.18
1017,NC,Cabarrus,28100,5.18
1018,NC,Mecklenburg,28000,5.36
1019,NC,Mecklenburg,28100,5.36
1020,NC,Mecklenburg,28200,5.36
1021,NC,Lincoln,28000,5.42
1022,NC,Lincoln,28100,5.42
1023,NC,Union,28000,4.82
1024,NC,Union,28100,4.82
1025,NC,Cumberland,28300,7.37
1026,NC,Sampson,28300,5.96
1027,NC,Sampson,28400,5.96
1028,NC,Robeson,28300,8.48
1029,NC,Bladen,28300,7.98
1030,NC,Bladen,28400,7.98
1031,NC,Duplin,28300,5.78
1032,NC,Duplin,28400,5.78
1033,NC,Duplin,28500,5.78
1034,NC,Richmond,28300,7.89
1035,NC,Scotland,28300,10.68
1036,NC,Hoke,28300,8.06
1037,NC,New Hanover,28400,5.34
1038,NC,Brunswick,28400,7.21
1039,NC,Pender,28400,6.10
1040,NC,Columbus,28400,7.59
1041,NC,Onslow,28400,6.05
1042,NC,Onslow,28500,6.05
1043,NC,Lenoir,28500,6.41
1044,NC,Pamlico,28500,6.06
1045,NC,Carteret,28500,5.96
1046,NC,Craven,28500,6.12
1047,NC,Jones,28500,5.83
1048,NC,Catawba,28600,5.56
1049,NC,Avery,28600,5.98
1050,NC,Watauga,28600,4.92
1051,NC,Wilkes,28600,5.73
1052,NC,Caldwell,28600,6.30
1053,NC,Burke,28600,5.73
1054,NC,Ashe,28600,6.04
1055,NC,Alleghany,28600,6.18
1056,NC,Alexander,28600,4.98
1057,NC,Buncombe,28700,4.36
1058,NC,Buncombe,28800,4.36
1059,NC,Swain,28700,7.88
1060,NC,Mitchell,28700,6.96
1061,NC,Jackson,28700,6.09
1062,NC,Transylvania,28700,5.52
1063,NC,Henderson,28700,4.73
1064,NC,Yancey,28700,5.94
1065,NC,Haywood,28700,5.23
1066,NC,Polk,28700,5.11
1067,NC,Graham,28700,12.16
1068,NC,Macon,28700,6.15
1069,NC,Mcdowell,28700,5.52
1070,NC,Madison,28700,5.67
1071,NC,Cherokee,28700,6.49
1072,NC,Cherokee,28900,6.49
1073,NC,Clay,28900,6.12
1074,SC,Clarendon,29000,7.75
1075,SC,Clarendon,29100,7.75
1076,SC,Richland,29000,5.66
1077,SC,Richland,29100,5.66
1078,SC,Richland,29200,5.66
1079,SC,Bamberg,29000,10.48
1080,SC,Bamberg,29800,10.48
1081,SC,Lexington,29000,4.84
1082,SC,Lexington,29100,4.84
1083,SC,Lexington,29200,4.84
1084,SC,Kershaw,29000,5.96
1085,SC,Kershaw,29100,5.96
1086,SC,Lee,29000,8.51
1087,SC,Chester,29000,8.30
1088,SC,Chester,29700,8.30
1089,SC,Fairfield,29000,7.97
1090,SC,Fairfield,29100,7.97
1091,SC,Orangeburg,29000,10.74
1092,SC,Orangeburg,29100,10.74
1093,SC,Orangeburg,29400,10.74
1094,SC,Calhoun,29000,7.02
1095,SC,Calhoun,29100,7.02
1096,SC,Union,29000,7.82
1097,SC,Union,29300,7.82
1098,SC,Newberry,29000,5.32
1099,SC,Newberry,29100,5.32
1100,SC,Newberry,29300,5.32
1101,SC,Sumter,29000,6.85
1102,SC,Sumter,29100,6.85
1103,SC,Williamsburg,29000,9.23
1104,SC,Williamsburg,29500,9.23
1105,SC,Lancaster,29000,6.32
1106,SC,Lancaster,29700,6.32
1107,SC,Darlington,29000,7.39
1108,SC,Darlington,29500,7.39
1109,SC,Colleton,29000,6.98
1110,SC,Colleton,29400,6.98
1111,SC,Colleton,29900,6.98
1112,SC,Chesterfield,29100,6.13
1113,SC,Chesterfield,29500,6.13
1114,SC,Chesterfield,29700,6.13
1115,SC,Saluda,29100,5.23
1116,SC,Florence,29100,6.58
1117,SC,Florence,29500,6.58
1118,SC,Aiken,29100,5.92
1119,SC,Aiken,29800,5.92
1120,SC,Spartanburg,29300,5.72
1121,SC,Spartanburg,29600,5.72
1122,SC,Laurens,29300,6.50
1123,SC,Laurens,29600,6.50
1124,SC,Cherokee,29300,7.15
1125,SC,Cherokee,29700,7.15
1126,SC,Charleston,29400,4.83
1127,SC,Berkeley,29400,5.48
1128,SC,Dorchester,29400,5.44
1129,SC,Georgetown,29400,8.38
1130,SC,Georgetown,29500,8.38
1131,SC,Horry,29500,7.07
1132,SC,Marlboro,29500,10.10
1133,SC,Marion,29500,10.02
1134,SC,Dillon,29500,8.65
1135,SC,Greenville,29600,4.97
1136,SC,Abbeville,29600,6.88
1137,SC,Anderson,29600,5.38
1138,SC,Pickens,29600,5.76
1139,SC,Oconee,29600,5.80
1140,SC,Greenwood,29600,6.31
1141,SC,Greenwood,29800,6.31
1142,SC,York,29700,5.47
1143,SC,Allendale,29800,11.42
1144,SC,Barnwell,29800,8.92
1145,SC,Edgefield,29800,6.35
1146,SC,Beaufort,29900,5.44
1147,SC,Hampton,29900,8.49
1148,SC,Jasper,29900,5.12
1149,GA,Dekalb,30000,6.00
1150,GA,Dekalb,30200,6.00
1151,GA,Dekalb,30300,6.00
1152,GA,Dekalb,31100,6.00
1153,GA,Dekalb,39900,6.00
1154,GA,Gwinnett,30000,5.20
1155,GA,Gwinnett,30500,5.20
1156,GA,Fulton,30000,6.00
1157,GA,Fulton,30200,6.00
1158,GA,Fulton,30300,6.00
1159,GA,Fulton,31100,6.00
1160,GA,Cobb,30000,5.10
1161,GA,Cobb,30100,5.10
1162,GA,Barrow,30000,5.30
1163,GA,Barrow,30600,5.30
1164,GA,Rockdale,30000,6.50
1165,GA,Newton,30000,6.70
1166,GA,Walton,30000,5.40
1167,GA,Walton,30600,5.40
1168,GA,Forsyth,30000,4.50
1169,GA,Jasper,30000,5.50
1170,GA,Jasper,31000,5.50
1171,GA,Bartow,30100,5.90
1172,GA,Polk,30100,6.60
1173,GA,Floyd,30100,6.70
1174,GA,Cherokee,30100,4.70
1175,GA,Carroll,30100,6.70
1176,GA,Haralson,30100,6.50
1177,GA,Douglas,30100,6.30
1178,GA,Paulding,30100,5.20
1179,GA,Gordon,30100,5.90
1180,GA,Gordon,30700,5.90
1181,GA,Pickens,30100,5.30
1182,GA,Lamar,30200,7.70
1183,GA,Fayette,30200,5.20
1184,GA,Pike,30200,5.70
1185,GA,Spalding,30200,8.00
1186,GA,Butts,30200,6.60
1187,GA,Heard,30200,6.40
1188,GA,Meriwether,30200,8.00
1189,GA,Meriwether,31800,8.00
1190,GA,Coweta,30200,5.30
1191,GA,Henry,30200,6.20
1192,GA,Troup,30200,6.10
1193,GA,Troup,31800,6.10
1194,GA,Clayton,30200,7.60
1195,GA,Upson,30200,7.20
1196,GA,Upson,31000,7.20
1197,GA,Emanuel,30400,8.70
1198,GA,Emanuel,31000,8.70
1199,GA,Montgomery,30400,8.70
1200,GA,Wheeler,30400,10.90
1201,GA,Jefferson,30400,9.00
1202,GA,Jefferson,30800,9.00
1203,GA,Evans,30400,5.60
1204,GA,Bulloch,30400,6.00
1205,GA,Tattnall,30400,6.20
1206,GA,Screven,30400,8.30
1207,GA,Burke,30400,8.10
1208,GA,Burke,30800,8.10
1209,GA,Toombs,30400,8.70
1210,GA,Candler,30400,5.70
1211,GA,Jenkins,30400,8.30
1212,GA,Jenkins,30800,8.30
1213,GA,Laurens,30400,7.50
1214,GA,Laurens,31000,7.50
1215,GA,Treutlen,30400,8.50
1216,GA,Hall,30500,4.90
1217,GA,Habersham,30500,5.70
1218,GA,Banks,30500,5.60
1219,GA,Union,30500,5.30
1220,GA,Fannin,30500,6.20
1221,GA,Hart,30500,6.20
1222,GA,Hart,30600,6.20
1223,GA,Jackson,30500,4.80
1224,GA,Franklin,30500,6.30
1225,GA,Franklin,30600,6.30
1226,GA,Gilmer,30500,6.00
1227,GA,Rabun,30500,6.70
1228,GA,White,30500,5.20
1229,GA,Lumpkin,30500,5.40
1230,GA,Dawson,30500,5.10
1231,GA,Stephens,30500,6.50
1232,GA,Towns,30500,7.90
1233,GA,Clarke,30600,6.10
1234,GA,Oglethorpe,30600,5.50
1235,GA,Oconee,30600,4.40
1236,GA,Morgan,30600,5.50
1237,GA,Elbert,30600,7.40
1238,GA,Madison,30600,5.50
1239,GA,Taliaferro,30600,7.80
1240,GA,Greene,30600,6.60
1241,GA,Wilkes,30600,7.20
1242,GA,Murray,30700,7.40
1243,GA,Walker,30700,6.00
1244,GA,Whitfield,30700,6.40
1245,GA,Catoosa,30700,5.20
1246,GA,Chattooga,30700,6.20
1247,GA,Dade,30700,5.50
1248,GA,Columbia,30800,5.00
1249,GA,Columbia,30900,5.00
1250,GA,Richmond,30800,7.40
1251,GA,Richmond,30900,7.40
1252,GA,Warren,30800,7.80
1253,GA,Warren,31000,7.80
1254,GA,Glascock,30800,6.70
1255,GA,Lincoln,30800,6.70
1256,GA,Wilcox,31000,7.80
1257,GA,Wilkinson,31000,7.30
1258,GA,Monroe,31000,5.80
1259,GA,Houston,31000,5.80
1260,GA,Taylor,31000,9.20
1261,GA,Dooly,31000,7.50
1262,GA,Peach,31000,7.90
1263,GA,Crisp,31000,6.80
1264,GA,Crisp,31700,6.80
1265,GA,Dodge,31000,8.40
1266,GA,Bleckley,31000,8.50
1267,GA,Twiggs,31000,9.10
1268,GA,Washington,31000,7.00
1269,GA,Putnam,31000,8.10
1270,GA,Jones,31000,5.50
1271,GA,Baldwin,31000,7.60
1272,GA,Pulaski,31000,6.60
1273,GA,Telfair,31000,8.70
1274,GA,Telfair,31500,8.70
1275,GA,Macon,31000,9.20
1276,GA,Johnson,31000,7.00
1277,GA,Crawford,31000,6.30
1278,GA,Hancock,31000,9.80
1279,GA,Bibb,31200,6.60
1280,GA,Liberty,31300,6.30
1281,GA,Chatham,31300,5.80
1282,GA,Chatham,31400,5.80
1283,GA,Effingham,31300,5.10
1284,GA,Bryan,31300,5.20
1285,GA,Long,31300,5.90
1286,GA,Ware,31500,6.50
1287,GA,Bacon,31500,5.70
1288,GA,Coffee,31500,6.70
1289,GA,Appling,31500,7.30
1290,GA,Pierce,31500,6.20
1291,GA,Glynn,31500,6.10
1292,GA,Charlton,31500,6.40
1293,GA,Charlton,31600,6.40
1294,GA,Brantley,31500,7.40
1295,GA,Wayne,31500,7.20
1296,GA,Camden,31500,5.50
1297,GA,Lowndes,31600,5.90
1298,GA,Cook,31600,6.70
1299,GA,Berrien,31600,7.20
1300,GA,Berrien,31700,7.20
1301,GA,Clinch,31600,7.00
1302,GA,Atkinson,31600,5.70
1303,GA,Brooks,31600,6.00
1304,GA,Brooks,31700,6.00
1305,GA,Thomas,31600,7.20
1306,GA,Thomas,31700,7.20
1307,GA,Lanier,31600,6.70
1308,GA,Echols,31600,4.70
1309,GA,Dougherty,31700,7.70
1310,GA,Sumter,31700,8.30
1311,GA,Calhoun,31700,6.20
1312,GA,Turner,31700,6.80
1313,GA,Decatur,31700,6.80
1314,GA,Mitchell,31700,6.70
1315,GA,Colquitt,31700,6.40
1316,GA,Early,31700,6.90
1317,GA,Clay,31700,11.80
1318,GA,Terrell,31700,7.40
1319,GA,Tift,31700,6.10
1320,GA,Grady,31700,6.00
1321,GA,Randolph,31700,9.10
1322,GA,Miller,31700,5.40
1323,GA,Seminole,31700,8.10
1324,GA,Quitman,31700,6.90
1325,GA,Irwin,31700,8.40
1326,GA,Lee,31700,5.30
1327,GA,Baker,31700,7.20
1328,GA,Worth,31700,6.50
1329,GA,Talbot,31800,7.70
1330,GA,Marion,31800,8.40
1331,GA,Harris,31800,5.20
1332,GA,Chattahoochee,31800,8.80
1333,GA,Schley,31800,6.60
1334,GA,Muscogee,31800,7.40
1335,GA,Muscogee,31900,7.40
1336,GA,Stewart,31800,6.90
1337,GA,Webster,31800,9.40
1338,FL,Clay,32000,5.00
1339,FL,Clay,32100,5.00
1340,FL,Clay,32600,5.00
1341,FL,Putnam,32000,7.60
1342,FL,Putnam,32100,7.60
1343,FL,Putnam,32600,7.60
1344,FL,Suwannee,32000,5.40
1345,FL,Nassau,32000,5.10
1346,FL,Lafayette,32000,4.50
1347,FL,Columbia,32000,5.40
1348,FL,Baker,32000,5.50
1349,FL,Bradford,32000,4.80
1350,FL,Bradford,32600,4.80
1351,FL,Hamilton,32000,6.40
1352,FL,Union,32000,4.80
1353,FL,Union,32600,4.80
1354,FL,Madison,32000,6.10
1355,FL,Madison,32300,6.10
1356,FL,Duval,32000,5.80
1357,FL,Duval,32200,5.80
1358,FL,Lake,32100,5.50
1359,FL,Lake,32700,5.50
1360,FL,Lake,34700,5.50
1361,FL,Volusia,32100,5.80
1362,FL,Volusia,32700,5.80
1363,FL,Flagler,32100,6.20
1364,FL,Marion,32100,6.40
1365,FL,Marion,32600,6.40
1366,FL,Marion,34400,6.40
1367,FL,Sumter,32100,7.60
1368,FL,Sumter,33500,7.60
1369,FL,Sumter,34400,7.60
1370,FL,Sumter,34700,7.60
1371,FL,Leon,32300,5.00
1372,FL,Wakulla,32300,4.60
1373,FL,Franklin,32300,4.70
1374,FL,Liberty,32300,5.80
1375,FL,Gadsden,32300,7.10
1376,FL,Jefferson,32300,5.90
1377,FL,Taylor,32300,6.60
1378,FL,Bay,32400,5.40
1379,FL,Jackson,32400,5.80
1380,FL,Calhoun,32400,6.10
1381,FL,Walton,32400,4.70
1382,FL,Walton,32500,4.70
1383,FL,Holmes,32400,6.10
1384,FL,Washington,32400,5.90
1385,FL,Gulf,32400,5.20
1386,FL,Escambia,32500,5.50
1387,FL,Okaloosa,32500,4.50
1388,FL,Alachua,32600,4.60
1389,FL,Gilchrist,32600,5.60
1390,FL,Levy,32600,5.70
1391,FL,Levy,34400,5.70
1392,FL,Dixie,32600,6.20
1393,FL,Seminole,32700,4.90
1394,FL,Orange,32700,5.00
1395,FL,Orange,32800,5.00
1396,FL,Orange,34700,5.00
1397,FL,Brevard,32700,5.90
1398,FL,Brevard,32800,5.90
1399,FL,Brevard,32900,5.90
1400,FL,Monroe,33000,3.50
1401,FL,Miami-Dade,33000,5.90
1402,FL,Miami-Dade,33100,5.90
1403,FL,Miami-Dade,33200,5.90
1404,FL,Broward,33000,5.10
1405,FL,Broward,33300,5.10
1406,FL,Broward,33400,5.10
1407,FL,Hendry,33400,10.50
1408,FL,Hendry,33900,10.50
1409,FL,Martin,33400,5.30
1410,FL,Martin,34900,5.30
1411,FL,Glades,33400,7.10
1412,FL,Glades,33900,7.10
1413,FL,Hillsborough,33500,5.00
1414,FL,Hillsborough,33600,5.00
1415,FL,Pasco,33500,5.80
1416,FL,Pasco,34600,5.80
1417,FL,Pinellas,33700,4.90
1418,FL,Pinellas,34600,4.90
1419,FL,Polk,33800,6.30
1420,FL,Polk,34700,6.30
1421,FL,Highlands,33800,7.40
1422,FL,Highlands,33900,7.40
1423,FL,Hardee,33800,6.90
1424,FL,Osceola,33800,5.70
1425,FL,Osceola,34700,5.70
1426,FL,Lee,33900,5.10
1427,FL,Lee,34100,5.10
1428,FL,Charlotte,33900,5.90
1429,FL,Collier,34100,5.20
1430,FL,Manatee,34200,5.00
1431,FL,Sarasota,34200,5.00
1432,FL,Citrus,34400,7.40
1433,FL,Hernando,34600,6.90
1434,FL,Okeechobee,34900,6.20
1435,AL,Jefferson,35000,5.79
1436,AL,Jefferson,35100,5.79
1437,AL,Jefferson,35200,5.79
1438,AL,Shelby,35000,4.23
1439,AL,Shelby,35100,4.23
1440,AL,Shelby,35200,4.23
1441,AL,Tallapoosa,35000,6.12
1442,AL,Tallapoosa,36000,6.12
1443,AL,Tallapoosa,36200,6.12
1444,AL,Tallapoosa,36800,6.12
1445,AL,Blount,35000,5.41
1446,AL,Blount,35100,5.41
1447,AL,Talladega,35000,6.57
1448,AL,Talladega,35100,6.57
1449,AL,Talladega,36200,6.57
1450,AL,Marshall,35000,5.77
1451,AL,Marshall,35100,5.77
1452,AL,Marshall,35700,5.77
1453,AL,Marshall,35900,5.77
1454,AL,Cullman,35000,5.27
1455,AL,Cullman,35100,5.27
1456,AL,Bibb,35000,6.61
1457,AL,Bibb,35100,6.61
1458,AL,Bibb,36700,6.61
1459,AL,Walker,35000,7.22
1460,AL,Walker,35100,7.22
1461,AL,Walker,35500,7.22
1462,AL,Chilton,35000,5.66
1463,AL,Chilton,35100,5.66
1464,AL,Chilton,36000,5.66
1465,AL,Chilton,36700,5.66
1466,AL,Coosa,35000,6.74
1467,AL,Coosa,35100,6.74
1468,AL,Coosa,36000,6.74
1469,AL,Clay,35000,6.14
1470,AL,Clay,36200,6.14
1471,AL,Tuscaloosa,35400,5.43
1472,AL,Hale,35400,7.83
1473,AL,Hale,36700,7.83
1474,AL,Pickens,35400,6.77
1475,AL,Greene,35400,11.02
1476,AL,Greene,36700,11.02
1477,AL,Sumter,35400,7.97
1478,AL,Sumter,36900,7.97
1479,AL,Winston,35500,7.60
1480,AL,Fayette,35500,7.00
1481,AL,Marion,35500,6.99
1482,AL,Lamar,35500,6.28
1483,AL,Franklin,35500,6.40
1484,AL,Franklin,35600,6.40
1485,AL,Morgan,35600,5.83
1486,AL,Morgan,35700,5.83
1487,AL,Lauderdale,35600,6.93
1488,AL,Limestone,35600,5.47
1489,AL,Limestone,35700,5.47
1490,AL,Colbert,35600,7.90
1491,AL,Lawrence,35600,7.66
1492,AL,Jackson,35700,6.59
1493,AL,Jackson,35900,6.59
1494,AL,Madison,35700,5.48
1495,AL,Madison,35800,5.48
1496,AL,Etowah,35900,6.12
1497,AL,Cherokee,35900,5.43
1498,AL,Cherokee,36200,5.43
1499,AL,Autauga,36000,5.25
1500,AL,Autauga,36700,5.25
1501,AL,Pike,36000,6.73
1502,AL,Crenshaw,36000,6.00
1503,AL,Montgomery,36000,6.16
1504,AL,Montgomery,36100,6.16
1505,AL,Butler,36000,7.55
1506,AL,Butler,36400,7.55
1507,AL,Barbour,36000,8.94
1508,AL,Elmore,36000,5.11
1509,AL,Bullock,36000,7.77
1510,AL,Macon,36000,8.06
1511,AL,Macon,36800,8.06
1512,AL,Lowndes,36000,11.58
1513,AL,Lowndes,36700,11.58
1514,AL,Covington,36000,7.12
1515,AL,Covington,36400,7.12
1516,AL,Calhoun,36200,6.98
1517,AL,Cleburne,36200,6.01
1518,AL,Randolph,36200,5.87
1519,AL,Houston,36300,6.18
1520,AL,Henry,36300,6.77
1521,AL,Dale,36300,6.35
1522,AL,Geneva,36300,5.84
1523,AL,Geneva,36400,5.84
1524,AL,Coffee,36300,5.91
1525,AL,Coffee,36400,5.91
1526,AL,Conecuh,36400,9.17
1527,AL,Monroe,36400,10.09
1528,AL,Escambia,36400,7.00
1529,AL,Escambia,36500,7.00
1530,AL,Wilcox,36400,14.63
1531,AL,Wilcox,36700,14.63
1532,AL,Clarke,36400,11.75
1533,AL,Clarke,36500,11.75
1534,AL,Clarke,36700,11.75
1535,AL,Mobile,36500,7.00
1536,AL,Mobile,36600,7.00
1537,AL,Baldwin,36500,5.49
1538,AL,Washington,36500,8.85
1539,AL,Dallas,36700,9.65
1540,AL,Marengo,36700,7.73
1541,AL,Perry,36700,9.96
1542,AL,Lee,36800,5.11
1543,AL,Russell,36800,6.00
1544,AL,Chambers,36800,6.02
1545,AL,Choctaw,36900,9.11
1546,TN,Robertson,37000,4.96
1547,TN,Robertson,37100,4.96
1548,TN,Davidson,37000,4.46
1549,TN,Davidson,37100,4.46
1550,TN,Davidson,37200,4.46
1551,TN,Dekalb,37000,7.00
1552,TN,Dekalb,37100,7.00
1553,TN,Williamson,37000,4.07
1554,TN,Williamson,37100,4.07
1555,TN,Cheatham,37000,4.90
1556,TN,Cheatham,37100,4.90
1557,TN,Cannon,37000,5.82
1558,TN,Cannon,37100,5.82
1559,TN,Coffee,37000,5.62
1560,TN,Coffee,37300,5.62
1561,TN,Marshall,37000,5.74
1562,TN,Bedford,37000,6.58
1563,TN,Bedford,37100,6.58
1564,TN,Bedford,37300,6.58
1565,TN,Sumner,37000,4.69
1566,TN,Sumner,37100,4.69
1567,TN,Stewart,37000,7.84
1568,TN,Hickman,37000,5.75
1569,TN,Hickman,37100,5.75
1570,TN,Hickman,38400,5.75
1571,TN,Dickson,37000,5.57
1572,TN,Dickson,37100,5.57
1573,TN,Smith,37000,5.71
1574,TN,Smith,37100,5.71
1575,TN,Smith,38500,5.71
1576,TN,Rutherford,37000,4.58
1577,TN,Rutherford,37100,4.58
1578,TN,Montgomery,37000,5.95
1579,TN,Montgomery,37100,5.95
1580,TN,Houston,37000,8.88
1581,TN,Houston,37100,8.88
1582,TN,Wilson,37000,4.68
1583,TN,Wilson,37100,4.68
1584,TN,Trousdale,37000,5.95
1585,TN,Humphreys,37000,6.93
1586,TN,Humphreys,37100,6.93
1587,TN,Macon,37000,5.33
1588,TN,Macon,37100,5.33
1589,TN,Perry,37000,6.99
1590,TN,Warren,37100,5.76
1591,TN,Warren,37300,5.76
1592,TN,Warren,38500,5.76
1593,TN,Lincoln,37100,4.94
1594,TN,Lincoln,37300,4.94
1595,TN,Lincoln,38400,4.94
1596,TN,Maury,37100,5.26
1597,TN,Maury,38400,5.26
1598,TN,Grundy,37300,7.91
1599,TN,Hamilton,37300,5.46
1600,TN,Hamilton,37400,5.46
1601,TN,Franklin,37300,5.32
1602,TN,Polk,37300,6.75
1603,TN,Bradley,37300,5.38
1604,TN,Monroe,37300,6.42
1605,TN,Monroe,37800,6.42
1606,TN,Rhea,37300,7.57
1607,TN,Meigs,37300,7.77
1608,TN,Meigs,37800,7.77
1609,TN,Sequatchie,37300,6.68
1610,TN,Marion,37300,6.90
1611,TN,Moore,37300,4.64
1612,TN,Bledsoe,37300,7.93
1613,TN,Shelby,37500,6.63
1614,TN,Shelby,38000,6.63
1615,TN,Shelby,38100,6.63
1616,TN,Washington,37600,5.73
1617,TN,Greene,37600,6.62
1618,TN,Greene,37700,6.62
1619,TN,Greene,37800,6.62
1620,TN,Sullivan,37600,5.95
1621,TN,Johnson,37600,5.82
1622,TN,Hawkins,37600,6.52
1623,TN,Hawkins,37700,6.52
1624,TN,Hawkins,37800,6.52
1625,TN,Carter,37600,6.67
1626,TN,Unicoi,37600,8.14
1627,TN,Blount,37700,5.29
1628,TN,Blount,37800,5.29
1629,TN,Anderson,37700,5.96
1630,TN,Anderson,37800,5.96
1631,TN,Claiborne,37700,7.34
1632,TN,Claiborne,37800,7.34
1633,TN,Grainger,37700,6.80
1634,TN,Grainger,37800,6.80
1635,TN,Cocke,37700,7.95
1636,TN,Cocke,37800,7.95
1637,TN,Campbell,37700,8.07
1638,TN,Campbell,37800,8.07
1639,TN,Morgan,37700,7.63
1640,TN,Morgan,37800,7.63
1641,TN,Knox,37700,4.77
1642,TN,Knox,37800,4.77
1643,TN,Knox,37900,4.77
1644,TN,Cumberland,37700,7.24
1645,TN,Cumberland,37800,7.24
1646,TN,Cumberland,38500,7.24
1647,TN,Jefferson,37700,6.52
1648,TN,Jefferson,37800,6.52
1649,TN,Scott,37700,9.56
1650,TN,Scott,37800,9.56
1651,TN,Sevier,37700,6.19
1652,TN,Sevier,37800,6.19
1653,TN,Loudon,37700,5.73
1654,TN,Loudon,37800,5.73
1655,TN,Roane,37700,6.57
1656,TN,Roane,37800,6.57
1657,TN,Hancock,37700,10.03
1658,TN,Hancock,37800,10.03
1659,TN,Hamblen,37700,6.34
1660,TN,Hamblen,37800,6.34
1661,TN,Union,37700,6.88
1662,TN,Union,37800,6.88
1663,TN,Crockett,38000,6.59
1664,TN,Crockett,38300,6.59
1665,TN,Fayette,38000,6.41
1666,TN,Tipton,38000,7.32
1667,TN,Dyer,38000,7.33
1668,TN,Dyer,38200,7.33
1669,TN,Hardeman,38000,7.74
1670,TN,Hardeman,38300,7.74
1671,TN,Haywood,38000,8.58
1672,TN,Lauderdale,38000,9.09
1673,TN,Lake,38000,8.80
1674,TN,Carroll,38200,8.57
1675,TN,Carroll,38300,8.57
1676,TN,Benton,38200,7.82
1677,TN,Benton,38300,7.82
1678,TN,Henry,38200,6.68
1679,TN,Weakley,38200,7.03
1680,TN,Obion,38200,8.88
1681,TN,Gibson,38200,7.57
1682,TN,Gibson,38300,7.57
1683,TN,Madison,38300,6.06
1684,TN,Decatur,38300,8.17
1685,TN,Hardin,38300,7.41
1686,TN,Hardin,38400,7.41
1687,TN,Henderson,38300,8.22
1688,TN,Chester,38300,6.08
1689,TN,Wayne,38400,7.42
1690,TN,Giles,38400,5.14
1691,TN,Lawrence,38400,6.78
1692,TN,Lewis,38400,7.53
1693,TN,Putnam,38500,5.98
1694,TN,Fentress,38500,7.39
1695,TN,Overton,38500,7.31
1696,TN,Pickett,38500,7.82
1697,TN,Clay,38500,9.02
1698,TN,White,38500,6.23
1699,TN,Jackson,38500,8.05
1700,MS,Lafayette,38600,5.56
1701,MS,Lafayette,38800,5.56
1702,MS,Lafayette,38900,5.56
1703,MS,Tate,38600,7.15
1704,MS,Benton,38600,8.00
1705,MS,Panola,38600,8.82
1706,MS,Quitman,38600,10.81
1707,MS,Quitman,38900,10.81
1708,MS,Tippah,38600,6.38
1709,MS,Marshall,38600,7.34
1710,MS,Coahoma,38600,10.28
1711,MS,Coahoma,38700,10.28
1712,MS,Tunica,38600,9.24
1713,MS,Union,38600,5.17
1714,MS,Union,38800,5.17
1715,MS,Washington,38700,10.48
1716,MS,Bolivar,38700,7.96
1717,MS,Sharkey,38700,9.87
1718,MS,Sharkey,39000,9.87
1719,MS,Sharkey,39100,9.87
1720,MS,Sunflower,38700,10.75
1721,MS,Issaquena,38700,16.87
1722,MS,Issaquena,39100,16.87
1723,MS,Humphreys,38700,12.94
1724,MS,Humphreys,39000,12.94
1725,MS,Humphreys,39100,12.94
1726,MS,Lee,38800,5.62
1727,MS,Pontotoc,38800,5.64
1728,MS,Monroe,38800,7.48
1729,MS,Monroe,39700,7.48
1730,MS,Tishomingo,38800,6.45
1731,MS,Prentiss,38800,6.12
1732,MS,Alcorn,38800,5.74
1733,MS,Calhoun,38800,6.36
1734,MS,Calhoun,38900,6.36
1735,MS,Calhoun,39700,6.36
1736,MS,Itawamba,38800,5.81
1737,MS,Chickasaw,38800,7.77
1738,MS,Chickasaw,39700,7.77
1739,MS,Grenada,38900,6.12
1740,MS,Carroll,38900,8.43
1741,MS,Carroll,39100,8.43
1742,MS,Tallahatchie,38900,7.62
1743,MS,Yalobusha,38900,7.13
1744,MS,Holmes,38900,12.12
1745,MS,Holmes,39000,12.12
1746,MS,Holmes,39100,12.12
1747,MS,Montgomery,38900,7.88
1748,MS,Montgomery,39700,7.88
1749,MS,Leflore,38900,10.93
1750,MS,Yazoo,39000,8.21
1751,MS,Yazoo,39100,8.21
1752,MS,Hinds,39000,6.07
1753,MS,Hinds,39100,6.07
1754,MS,Hinds,39200,6.07
1755,MS,Rankin,39000,4.19
1756,MS,Rankin,39100,4.19
1757,MS,Rankin,39200,4.19
1758,MS,Simpson,39000,5.93
1759,MS,Simpson,39100,5.93
1760,MS,Madison,39000,4.65
1761,MS,Madison,39100,4.65
1762,MS,Leake,39000,6.31
1763,MS,Leake,39100,6.31
1764,MS,Newton,39000,6.23
1765,MS,Newton,39300,6.23
1766,MS,Copiah,39000,7.30
1767,MS,Copiah,39100,7.30
1768,MS,Attala,39000,7.72
1769,MS,Attala,39100,7.72
1770,MS,Jefferson,39000,14.90
1771,MS,Jefferson,39600,14.90
1772,MS,Scott,39000,4.90
1773,MS,Scott,39100,4.90
1774,MS,Scott,39300,4.90
1775,MS,Claiborne,39000,12.95
1776,MS,Claiborne,39100,12.95
1777,MS,Smith,39100,5.48
1778,MS,Covington,39100,5.93
1779,MS,Covington,39400,5.93
1780,MS,Adams,39100,8.08
1781,MS,Lawrence,39100,7.42
1782,MS,Lawrence,39600,7.42
1783,MS,Warren,39100,6.83
1784,MS,Lauderdale,39300,6.71
1785,MS,Wayne,39300,7.97
1786,MS,Kemper,39300,10.42
1787,MS,Clarke,39300,7.95
1788,MS,Jasper,39300,7.87
1789,MS,Jasper,39400,7.87
1790,MS,Winston,39300,8.35
1791,MS,Noxubee,39300,9.89
1792,MS,Noxubee,39700,9.89
1793,MS,Neshoba,39300,6.20
1794,MS,Greene,39300,7.87
1795,MS,Greene,39400,7.87
1796,MS,Forrest,39400,6.38
1797,MS,Perry,39400,8.00
1798,MS,Marion,39400,7.43
1799,MS,Marion,39600,7.43
1800,MS,Jones,39400,6.04
1801,MS,George,39400,7.57
1802,MS,Lamar,39400,4.88
1803,MS,Harrison,39500,6.05
1804,MS,Hancock,39500,6.54
1805,MS,Jackson,39500,7.17
1806,MS,Stone,39500,7.49
1807,MS,Lincoln,39600,6.18
1808,MS,Franklin,39600,7.79
1809,MS,Wilkinson,39600,10.61
1810,MS,Pike,39600,7.41
1811,MS,Amite,39600,7.69
1812,MS,Walthall,39600,8.19
1813,MS,Lowndes,39700,7.07
1814,MS,Choctaw,39700,6.18
1815,MS,Webster,39700,7.32
1816,MS,Clay,39700,9.63
1817,MS,Oktibbeha,39700,6.29
1818,KY,Shelby,40000,4.13
1819,KY,Nelson,40000,5.14
1820,KY,Nelson,40100,5.14
1821,KY,Trimble,40000,5.77
1822,KY,Henry,40000,4.79
1823,KY,Marion,40000,5.09
1824,KY,Marion,40300,5.09
1825,KY,Oldham,40000,4.00
1826,KY,Jefferson,40000,4.88
1827,KY,Jefferson,40100,4.88
1828,KY,Jefferson,40200,4.88
1829,KY,Washington,40000,4.44
1830,KY,Spencer,40000,4.38
1831,KY,Bullitt,40000,4.67
1832,KY,Bullitt,40100,4.67
1833,KY,Meade,40100,5.64
1834,KY,Breckinridge,40100,6.07
1835,KY,Grayson,40100,6.80
1836,KY,Grayson,42700,6.80
1837,KY,Hardin,40100,5.10
1838,KY,Hardin,42700,5.10
1839,KY,Mercer,40300,5.08
1840,KY,Nicholas,40300,6.04
1841,KY,Powell,40300,7.26
1842,KY,Rowan,40300,5.97
1843,KY,Menifee,40300,8.74
1844,KY,Clark,40300,5.28
1845,KY,Scott,40300,4.05
1846,KY,Montgomery,40300,6.63
1847,KY,Estill,40300,6.20
1848,KY,Estill,40400,6.20
1849,KY,Jessamine,40300,4.30
1850,KY,Anderson,40300,4.23
1851,KY,Woodford,40300,3.59
1852,KY,Bourbon,40300,4.85
1853,KY,Owen,40300,4.15
1854,KY,Bath,40300,7.79
1855,KY,Madison,40300,4.43
1856,KY,Madison,40400,4.43
1857,KY,Jackson,40400,8.58
1858,KY,Rockcastle,40400,6.58
1859,KY,Garrard,40400,5.17
1860,KY,Lincoln,40400,6.89
1861,KY,Boyle,40400,5.68
1862,KY,Fayette,40500,3.92
1863,KY,Fayette,41900,3.92
1864,KY,Franklin,40600,4.34
1865,KY,Whitley,40700,6.96
1866,KY,Laurel,40700,6.32
1867,KY,Knox,40700,8.27
1868,KY,Knox,40900,8.27
1869,KY,Harlan,40800,11.67
1870,KY,Harlan,40900,11.67
1871,KY,Leslie,40800,10.83
1872,KY,Leslie,40900,10.83
1873,KY,Leslie,41700,10.83
1874,KY,Bell,40800,8.49
1875,KY,Bell,40900,8.49
1876,KY,Letcher,40800,11.19
1877,KY,Letcher,41500,11.19
1878,KY,Letcher,41800,11.19
1879,KY,Clay,40900,9.65
1880,KY,Perry,40900,8.87
1881,KY,Perry,41300,8.87
1882,KY,Perry,41700,8.87
1883,KY,Campbell,41000,4.23
1884,KY,Bracken,41000,6.43
1885,KY,Harrison,41000,4.69
1886,KY,Boone,41000,4.18
1887,KY,Pendleton,41000,5.48
1888,KY,Carroll,41000,5.79
1889,KY,Grant,41000,5.42
1890,KY,Kenton,41000,4.54
1891,KY,Mason,41000,6.07
1892,KY,Fleming,41000,6.27
1893,KY,Gallatin,41000,5.34
1894,KY,Robertson,41000,6.48
1895,KY,Boyd,41100,6.98
1896,KY,Greenup,41100,7.76
1897,KY,Lawrence,41100,9.37
1898,KY,Lawrence,41200,9.37
1899,KY,Lewis,41100,8.56
1900,KY,Carter,41100,9.99
1901,KY,Elliott,41100,10.03
1902,KY,Martin,41200,9.56
1903,KY,Johnson,41200,8.41
1904,KY,Wolfe,41300,10.13
1905,KY,Breathitt,41300,9.53
1906,KY,Lee,41300,8.52
1907,KY,Owsley,41300,10.38
1908,KY,Morgan,41300,7.96
1909,KY,Morgan,41400,7.96
1910,KY,Magoffin,41400,14.65
1911,KY,Magoffin,41600,14.65
1912,KY,Pike,41500,9.50
1913,KY,Floyd,41600,9.44
1914,KY,Knott,41700,9.91
1915,KY,Knott,41800,9.91
1916,KY,Calloway,42000,4.80
1917,KY,Carlisle,42000,5.79
1918,KY,Ballard,42000,7.12
1919,KY,Marshall,42000,5.72
1920,KY,Graves,42000,6.29
1921,KY,Livingston,42000,7.39
1922,KY,Hickman,42000,5.82
1923,KY,Crittenden,42000,5.53
1924,KY,Lyon,42000,5.77
1925,KY,Fulton,42000,7.70
1926,KY,Warren,42100,4.59
1927,KY,Warren,42200,4.59
1928,KY,Allen,42100,5.00
1929,KY,Barren,42100,5.29
1930,KY,Metcalfe,42100,5.29
1931,KY,Metcalfe,42200,5.29
1932,KY,Monroe,42100,4.39
1933,KY,Simpson,42100,4.84
1934,KY,Edmonson,42100,7.13
1935,KY,Edmonson,42200,7.13
1936,KY,Butler,42200,5.98
1937,KY,Logan,42200,4.78
1938,KY,Todd,42200,4.74
1939,KY,Trigg,42200,5.83
1940,KY,Christian,42200,6.42
1941,KY,Daviess,42300,4.71
1942,KY,Ohio,42300,6.41
1943,KY,Muhlenberg,42300,7.09
1944,KY,Hancock,42300,5.06
1945,KY,Henderson,42400,4.95
1946,KY,Webster,42400,5.18
1947,KY,Hopkins,42400,5.70
1948,KY,Caldwell,42400,5.63
1949,KY,Union,42400,6.86
1950,KY,Pulaski,42500,5.96
1951,KY,Casey,42500,5.73
1952,KY,Clinton,42600,8.29
1953,KY,Russell,42600,11.92
1954,KY,Wayne,42600,8.07
1955,KY,Cumberland,42700,6.03
1956,KY,Hart,42700,5.20
1957,KY,Adair,42700,7.58
1958,KY,Larue,42700,5.28
1959,KY,Taylor,42700,6.57
1960,KY,Green,42700,5.47
1961,OH,Licking,43000,4.38
1962,OH,Licking,43700,4.38
1963,OH,Franklin,43000,4.08
1964,OH,Franklin,43100,4.08
1965,OH,Franklin,43200,4.08
1966,OH,Delaware,43000,3.48
1967,OH,Knox,43000,4.67
1968,OH,Union,43000,3.80
1969,OH,Union,43300,3.80
1970,OH,Champaign,43000,4.37
1971,OH,Champaign,45300,4.37
1972,OH,Clark,43000,5.00
1973,OH,Clark,45300,5.00
1974,OH,Clark,45500,5.00
1975,OH,Fairfield,43000,4.32
1976,OH,Fairfield,43100,4.32
1977,OH,Madison,43000,3.99
1978,OH,Madison,43100,3.99
1979,OH,Perry,43000,6.47
1980,OH,Perry,43700,6.47
1981,OH,Ross,43100,5.34
1982,OH,Ross,45600,5.34
1983,OH,Pickaway,43100,4.72
1984,OH,Fayette,43100,4.91
1985,OH,Hocking,43100,5.46
1986,OH,Marion,43300,5.13
1987,OH,Logan,43300,4.13
1988,OH,Morrow,43300,4.95
1989,OH,Wyandot,43300,3.63
1990,OH,Wyandot,44800,3.63
1991,OH,Hardin,43300,4.68
1992,OH,Hardin,45800,4.68
1993,OH,Wood,43400,4.29
1994,OH,Wood,43500,4.29
1995,OH,Wood,43600,4.29
1996,OH,Wood,44800,4.29
1997,OH,Wood,45800,4.29
1998,OH,Sandusky,43400,4.86
1999,OH,Ottawa,43400,6.65
2000,OH,Lucas,43400,5.32
2001,OH,Lucas,43500,5.32
2002,OH,Lucas,43600,5.32
2003,OH,Erie,43400,5.68
2004,OH,Erie,44000,5.68
2005,OH,Erie,44800,5.68
2006,OH,Williams,43500,4.40
2007,OH,Fulton,43500,4.92
2008,OH,Henry,43500,5.62
2009,OH,Defiance,43500,4.93
2010,OH,Muskingum,43700,6.15
2011,OH,Muskingum,43800,6.15
2012,OH,Noble,43700,7.38
2013,OH,Noble,45700,7.38
2014,OH,Belmont,43700,6.34
2015,OH,Belmont,43900,6.34
2016,OH,Monroe,43700,9.95
2017,OH,Monroe,43900,9.95
2018,OH,Monroe,45700,9.95
2019,OH,Guernsey,43700,6.25
2020,OH,Morgan,43700,7.26
2021,OH,Coshocton,43800,6.29
2022,OH,Tuscarawas,43800,5.36
2023,OH,Tuscarawas,44600,5.36
2024,OH,Jefferson,43900,7.41
2025,OH,Harrison,43900,6.26
2026,OH,Harrison,44600,6.26
2027,OH,Columbiana,43900,5.89
2028,OH,Columbiana,44400,5.89
2029,OH,Columbiana,44600,5.89
2030,OH,Lorain,44000,5.38
2031,OH,Ashtabula,44000,5.98
2032,OH,Cuyahoga,44000,5.00
2033,OH,Cuyahoga,44100,5.00
2034,OH,Geauga,44000,4.02
2035,OH,Lake,44000,4.35
2036,OH,Summit,44000,4.94
2037,OH,Summit,44200,4.94
2038,OH,Summit,44300,4.94
2039,OH,Summit,44600,4.94
2040,OH,Portage,44200,4.86
2041,OH,Portage,44400,4.86
2042,OH,Medina,44200,3.98
2043,OH,Wayne,44200,3.93
2044,OH,Wayne,44600,3.93
2045,OH,Mahoning,44400,6.11
2046,OH,Mahoning,44500,6.11
2047,OH,Mahoning,44600,6.11
2048,OH,Trumbull,44400,6.45
2049,OH,Stark,44600,5.27
2050,OH,Stark,44700,5.27
2051,OH,Carroll,44600,5.93
2052,OH,Holmes,44600,3.41
2053,OH,Seneca,44800,4.80
2054,OH,Hancock,44800,3.65
2055,OH,Hancock,45800,3.65
2056,OH,Ashland,44800,5.09
2057,OH,Huron,44800,6.64
2058,OH,Richland,44800,5.56
2059,OH,Richland,44900,5.56
2060,OH,Crawford,44800,5.80
2061,OH,Hamilton,45000,4.50
2062,OH,Hamilton,45100,4.50
2063,OH,Hamilton,45200,4.50
2064,OH,Hamilton,45900,4.50
2065,OH,Butler,45000,4.56
2066,OH,Warren,45000,4.15
2067,OH,Warren,45100,4.15
2068,OH,Preble,45000,4.80
2069,OH,Preble,45300,4.80
2070,OH,Brown,45100,6.18
2071,OH,Brown,45200,6.18
2072,OH,Clermont,45100,4.48
2073,OH,Clermont,45200,4.48
2074,OH,Adams,45100,7.92
2075,OH,Adams,45600,7.92
2076,OH,Clinton,45100,6.13
2077,OH,Highland,45100,6.33
2078,OH,Greene,45300,4.38
2079,OH,Greene,45400,4.38
2080,OH,Shelby,45300,4.27
2081,OH,Shelby,45800,4.27
2082,OH,Darke,45300,4.26
2083,OH,Miami,45300,4.41
2084,OH,Montgomery,45300,5.01
2085,OH,Montgomery,45400,5.01
2086,OH,Mercer,45300,3.26
2087,OH,Mercer,45800,3.26
2088,OH,Pike,45600,7.41
2089,OH,Gallia,45600,6.48
2090,OH,Lawrence,45600,5.81
2091,OH,Jackson,45600,7.52
2092,OH,Vinton,45600,6.58
2093,OH,Scioto,45600,7.66
2094,OH,Athens,45700,6.21
2095,OH,Washington,45700,5.97
2096,OH,Meigs,45700,8.26
2097,OH,Allen,45800,4.83
2098,OH,Auglaize,45800,3.68
2099,OH,Paulding,45800,4.78
2100,OH,Putnam,45800,3.91
2101,OH,Van Wert,45800,4.12
2102,IN,Madison,46000,5.62
2103,IN,Hamilton,46000,3.35
2104,IN,Hamilton,46200,3.35
2105,IN,Clinton,46000,3.98
2106,IN,Hancock,46000,4.20
2107,IN,Hancock,46100,4.20
2108,IN,Tipton,46000,3.99
2109,IN,Boone,46000,3.68
2110,IN,Boone,46100,3.68
2111,IN,Hendricks,46100,3.80
2112,IN,Rush,46100,4.35
2113,IN,Putnam,46100,5.07
2114,IN,Johnson,46100,4.03
2115,IN,Marion,46100,5.00
2116,IN,Marion,46200,5.00
2117,IN,Shelby,46100,4.41
2118,IN,Shelby,47200,4.41
2119,IN,Morgan,46100,4.66
2120,IN,Fayette,46100,6.53
2121,IN,Fayette,47300,6.53
2122,IN,Henry,46100,5.32
2123,IN,Henry,47300,5.32
2124,IN,Brown,46100,4.76
2125,IN,Brown,47400,4.76
2126,IN,Porter,46300,5.40
2127,IN,Lake,46300,6.78
2128,IN,Lake,46400,6.78
2129,IN,Jasper,46300,5.77
2130,IN,Jasper,47900,5.77
2131,IN,Newton,46300,5.73
2132,IN,Newton,47900,5.73
2133,IN,Starke,46300,5.96
2134,IN,Starke,46500,5.96
2135,IN,Starke,46900,5.96
2136,IN,Marshall,46500,4.16
2137,IN,Kosciusko,46500,4.04
2138,IN,Kosciusko,46900,4.04
2139,IN,Elkhart,46500,3.84
2140,IN,Noble,46700,4.23
2141,IN,Huntington,46700,4.32
2142,IN,Steuben,46700,3.93
2143,IN,Allen,46700,4.55
2144,IN,Allen,46800,4.55
2145,IN,Adams,46700,3.78
2146,IN,Wells,46700,3.90
2147,IN,Whitley,46700,4.08
2148,IN,Howard,46900,5.01
2149,IN,Fulton,46900,4.78
2150,IN,Miami,46900,5.25
2151,IN,Carroll,46900,4.27
2152,IN,Carroll,47900,4.27
2153,IN,Grant,46900,5.45
2154,IN,Cass,46900,4.62
2155,IN,Wabash,46900,4.77
2156,IN,Pulaski,46900,4.51
2157,IN,Pulaski,47900,4.51
2158,IN,Dearborn,47000,5.08
2159,IN,Union,47000,4.43
2160,IN,Union,47300,4.43
2161,IN,Ripley,47000,5.38
2162,IN,Franklin,47000,5.07
2163,IN,Switzerland,47000,4.93
2164,IN,Ohio,47000,5.42
2165,IN,Scott,47100,5.37
2166,IN,Clark,47100,4.47
2167,IN,Harrison,47100,4.52
2168,IN,Washington,47100,5.13
2169,IN,Crawford,47100,6.01
2170,IN,Floyd,47100,4.25
2171,IN,Bartholomew,47200,3.57
2172,IN,Jackson,47200,3.97
2173,IN,Jennings,47200,5.12
2174,IN,Jefferson,47200,4.84
2175,IN,Decatur,47200,4.01
2176,IN,Delaware,47300,5.68
2177,IN,Wayne,47300,5.30
2178,IN,Jay,47300,4.98
2179,IN,Randolph,47300,4.96
2180,IN,Blackford,47300,6.02
2181,IN,Monroe,47400,4.87
2182,IN,Lawrence,47400,6.53
2183,IN,Greene,47400,6.82
2184,IN,Owen,47400,6.21
2185,IN,Orange,47400,5.95
2186,IN,Daviess,47500,3.78
2187,IN,Knox,47500,4.55
2188,IN,Dubois,47500,3.40
2189,IN,Perry,47500,4.69
2190,IN,Martin,47500,4.19
2191,IN,Spencer,47500,4.15
2192,IN,Spencer,47600,4.15
2193,IN,Pike,47500,4.37
2194,IN,Warrick,47600,4.04
2195,IN,Posey,47600,3.93
2196,IN,Vanderburgh,47600,4.25
2197,IN,Vanderburgh,47700,4.25
2198,IN,Gibson,47600,3.80
2199,IN,Vigo,47800,6.13
2200,IN,Parke,47800,5.68
2201,IN,Vermillion,47800,7.06
2202,IN,Vermillion,47900,7.06
2203,IN,Clay,47800,5.27
2204,IN,Sullivan,47800,6.19
2205,IN,Tippecanoe,47900,4.18
2206,IN,Montgomery,47900,3.98
2207,IN,Benton,47900,4.46
2208,IN,Fountain,47900,5.93
2209,IN,White,47900,4.08
2210,IN,Warren,47900,4.92
2211,MI,Lapeer,48000,7.65
2212,MI,Lapeer,48400,7.65
2213,MI,Lapeer,48700,7.65
2214,MI,Macomb,48000,6.70
2215,MI,Macomb,48300,6.70
2216,MI,Oakland,48000,5.60
2217,MI,Oakland,48100,5.60
2218,MI,Oakland,48200,5.60
2219,MI,Oakland,48300,5.60
2220,MI,Oakland,48400,5.60
2221,MI,Wayne,48100,8.15
2222,MI,Wayne,48200,8.15
2223,MI,Washtenaw,48100,4.05
2224,MI,Monroe,48100,4.70
2225,MI,Monroe,49200,4.70
2226,MI,Livingston,48100,5.25
2227,MI,Livingston,48300,5.25
2228,MI,Livingston,48800,5.25
2229,MI,Sanilac,48400,6.30
2230,MI,Genesee,48400,6.20
2231,MI,Genesee,48500,6.20
2232,MI,Huron,48400,5.00
2233,MI,Huron,48700,5.00
2234,MI,Shiawassee,48400,5.60
2235,MI,Shiawassee,48800,5.60
2236,MI,Saginaw,48400,5.70
2237,MI,Saginaw,48600,5.70
2238,MI,Saginaw,48700,5.70
2239,MI,Tuscola,48400,6.45
2240,MI,Tuscola,48700,6.45
2241,MI,Ogemaw,48600,7.05
2242,MI,Ogemaw,48700,7.05
2243,MI,Bay,48600,5.55
2244,MI,Bay,48700,5.55
2245,MI,Gladwin,48600,6.80
2246,MI,Gratiot,48600,5.60
2247,MI,Gratiot,48800,5.60
2248,MI,Clare,48600,7.20
2249,MI,Midland,48600,4.75
2250,MI,Oscoda,48600,7.65
2251,MI,Roscommon,48600,7.90
2252,MI,Arenac,48600,7.50
2253,MI,Arenac,48700,7.50
2254,MI,Alcona,48700,7.10
2255,MI,Iosco,48700,6.60
2256,MI,Isabella,48800,5.00
2257,MI,Isabella,49300,5.00
2258,MI,Ingham,48800,4.95
2259,MI,Ingham,48900,4.95
2260,MI,Ingham,49200,4.95
2261,MI,Clinton,48800,3.95
2262,MI,Ionia,48800,4.60
2263,MI,Montcalm,48800,5.60
2264,MI,Montcalm,49300,5.60
2265,MI,Eaton,48800,4.50
2266,MI,Eaton,48900,4.50
2267,MI,Eaton,49000,4.50
2268,MI,Barry,48800,4.15
2269,MI,Barry,49000,4.15
2270,MI,Barry,49300,4.15
2271,MI,Kalamazoo,49000,4.55
2272,MI,Allegan,49000,4.00
2273,MI,Allegan,49300,4.00
2274,MI,Allegan,49400,4.00
2275,MI,Calhoun,49000,5.25
2276,MI,Calhoun,49200,5.25
2277,MI,Berrien,49000,5.15
2278,MI,Berrien,49100,5.15
2279,MI,Branch,49000,5.15
2280,MI,Branch,49200,5.15
2281,MI,Cass,49000,5.10
2282,MI,Cass,49100,5.10
2283,MI,Jackson,49200,5.45
2284,MI,Lenawee,49200,5.10
2285,MI,Hillsdale,49200,5.40
2286,MI,Kent,49300,3.90
2287,MI,Kent,49400,3.90
2288,MI,Kent,49500,3.90
2289,MI,Muskegon,49300,5.90
2290,MI,Muskegon,49400,5.90
2291,MI,Lake,49300,7.90
2292,MI,Lake,49400,7.90
2293,MI,Lake,49600,7.90
2294,MI,Mecosta,49300,6.45
2295,MI,Newaygo,49300,5.25
2296,MI,Newaygo,49400,5.25
2297,MI,Ottawa,49400,3.75
2298,MI,Mason,49400,5.10
2299,MI,Oceana,49400,6.40
2300,MI,Wexford,49600,6.25
2301,MI,Antrim,49600,6.00
2302,MI,Antrim,49700,6.00
2303,MI,Manistee,49600,5.70
2304,MI,Benzie,49600,5.70
2305,MI,Leelanau,49600,4.20
2306,MI,Osceola,49600,6.45
2307,MI,Missaukee,49600,5.90
2308,MI,Kalkaska,49600,6.45
2309,MI,Cheboygan,49700,4.35
2310,MI,Emmet,49700,5.40
2311,MI,Alpena,49700,5.75
2312,MI,Montmorency,49700,8.45
2313,MI,Chippewa,49700,6.90
2314,MI,Charlevoix,49700,4.80
2315,MI,Mackinac,49700,3.20
2316,MI,Mackinac,49800,3.20
2317,MI,Otsego,49700,5.55
2318,MI,Crawford,49700,6.95
2319,MI,Dickinson,49800,5.30
2320,MI,Keweenaw,49800,7.25
2321,MI,Keweenaw,49900,7.25
2322,MI,Alger,49800,7.10
2323,MI,Delta,49800,6.35
2324,MI,Marquette,49800,6.40
2325,MI,Menominee,49800,5.40
2326,MI,Schoolcraft,49800,10.55
2327,MI,Luce,49800,5.85
2328,MI,Iron,49900,6.10
2329,MI,Houghton,49900,6.30
2330,MI,Baraga,49900,8.75
2331,MI,Ontonagon,49900,9.00
2332,MI,Gogebic,49900,7.15
2333,IA,Warren,50000,3.33
2334,IA,Warren,50100,3.33
2335,IA,Warren,50200,3.33
2336,IA,Adair,50000,3.17
2337,IA,Adair,50800,3.17
2338,IA,Dallas,50000,2.81
2339,IA,Dallas,50100,2.81
2340,IA,Dallas,50200,2.81
2341,IA,Marshall,50000,4.99
2342,IA,Marshall,50100,4.99
2343,IA,Marshall,50200,4.99
2344,IA,Hardin,50000,3.88
2345,IA,Hardin,50100,3.88
2346,IA,Hardin,50200,3.88
2347,IA,Hardin,50600,3.88
2348,IA,Polk,50000,3.58
2349,IA,Polk,50100,3.58
2350,IA,Polk,50200,3.58
2351,IA,Polk,50300,3.58
2352,IA,Polk,50900,3.58
2353,IA,Wayne,50000,3.84
2354,IA,Wayne,50100,3.84
2355,IA,Wayne,52500,3.84
2356,IA,Story,50000,2.41
2357,IA,Story,50100,2.41
2358,IA,Story,50200,2.41
2359,IA,Cass,50000,3.56
2360,IA,Cass,50200,3.56
2361,IA,Cass,50800,3.56
2362,IA,Cass,51500,3.56
2363,IA,Audubon,50000,3.89
2364,IA,Audubon,50100,3.89
2365,IA,Audubon,51500,3.89
2366,IA,Guthrie,50000,3.64
2367,IA,Guthrie,50100,3.64
2368,IA,Guthrie,50200,3.64
2369,IA,Mahaska,50000,3.89
2370,IA,Mahaska,50100,3.89
2371,IA,Mahaska,50200,3.89
2372,IA,Mahaska,52500,3.89
2373,IA,Jasper,50000,3.82
2374,IA,Jasper,50100,3.82
2375,IA,Jasper,50200,3.82
2376,IA,Boone,50000,2.96
2377,IA,Boone,50100,2.96
2378,IA,Boone,50200,2.96
2379,IA,Madison,50000,3.81
2380,IA,Madison,50100,3.81
2381,IA,Madison,50200,3.81
2382,IA,Hamilton,50000,4.18
2383,IA,Hamilton,50100,4.18
2384,IA,Hamilton,50200,4.18
2385,IA,Hamilton,50500,4.18
2386,IA,Franklin,50000,3.32
2387,IA,Franklin,50200,3.32
2388,IA,Franklin,50400,3.32
2389,IA,Franklin,50600,3.32
2390,IA,Marion,50000,3.19
2391,IA,Marion,50100,3.19
2392,IA,Marion,50200,3.19
2393,IA,Lucas,50000,3.45
2394,IA,Lucas,50100,3.45
2395,IA,Lucas,50200,3.45
2396,IA,Greene,50000,3.44
2397,IA,Greene,50100,3.44
2398,IA,Greene,50200,3.44
2399,IA,Greene,51400,3.44
2400,IA,Carroll,50000,2.59
2401,IA,Carroll,51400,2.59
2402,IA,Decatur,50000,3.20
2403,IA,Decatur,50100,3.20
2404,IA,Decatur,50200,3.20
2405,IA,Wright,50000,3.81
2406,IA,Wright,50100,3.81
2407,IA,Wright,50400,3.81
2408,IA,Wright,50500,3.81
2409,IA,Ringgold,50000,3.30
2410,IA,Ringgold,50100,3.30
2411,IA,Ringgold,50800,3.30
2412,IA,Keokuk,50100,4.13
2413,IA,Keokuk,50200,4.13
2414,IA,Keokuk,52200,4.13
2415,IA,Keokuk,52300,4.13
2416,IA,Keokuk,52500,4.13
2417,IA,Poweshiek,50100,3.59
2418,IA,Poweshiek,50200,3.59
2419,IA,Poweshiek,52200,3.59
2420,IA,Union,50100,4.06
2421,IA,Union,50200,4.06
2422,IA,Union,50800,4.06
2423,IA,Monroe,50100,4.33
2424,IA,Monroe,52500,4.33
2425,IA,Tama,50100,4.30
2426,IA,Tama,50600,4.30
2427,IA,Tama,52200,4.30
2428,IA,Tama,52300,4.30
2429,IA,Clarke,50100,4.02
2430,IA,Clarke,50200,4.02
2431,IA,Hancock,50400,2.67
2432,IA,Winnebago,50400,3.88
2433,IA,Mitchell,50400,2.82
2434,IA,Worth,50400,3.92
2435,IA,Floyd,50400,3.72
2436,IA,Floyd,50600,3.72
2437,IA,Kossuth,50400,2.82
2438,IA,Kossuth,50500,2.82
2439,IA,Howard,50400,3.50
2440,IA,Howard,50600,3.50
2441,IA,Howard,52100,3.50
2442,IA,Webster,50500,4.25
2443,IA,Emmet,50500,3.66
2444,IA,Emmet,51300,3.66
2445,IA,Humboldt,50500,3.28
2446,IA,Sac,50500,3.26
2447,IA,Sac,51000,3.26
2448,IA,Sac,51400,3.26
2449,IA,Calhoun,50500,4.25
2450,IA,Calhoun,51400,4.25
2451,IA,Pocahontas,50500,3.00
2452,IA,Butler,50600,4.28
2453,IA,Chickasaw,50600,4.43
2454,IA,Chickasaw,52100,4.43
2455,IA,Fayette,50600,4.46
2456,IA,Fayette,52100,4.46
2457,IA,Buchanan,50600,4.19
2458,IA,Buchanan,52200,4.19
2459,IA,Buchanan,52300,4.19
2460,IA,Grundy,50600,3.71
2461,IA,Bremer,50600,3.45
2462,IA,Delaware,50600,3.31
2463,IA,Delaware,52000,3.31
2464,IA,Delaware,52200,3.31
2465,IA,Delaware,52300,3.31
2466,IA,Taylor,50800,3.07
2467,IA,Taylor,51600,3.07
2468,IA,Adams,50800,2.76
2469,IA,Montgomery,50800,3.51
2470,IA,Montgomery,51500,3.51
2471,IA,Plymouth,51000,2.77
2472,IA,Sioux,51000,2.41
2473,IA,Sioux,51200,2.41
2474,IA,Woodbury,51000,3.72
2475,IA,Woodbury,51100,3.72
2476,IA,Cherokee,51000,5.08
2477,IA,Ida,51000,3.08
2478,IA,Ida,51400,3.08
2479,IA,Monona,51000,4.30
2480,IA,Monona,51500,4.30
2481,IA,Clay,51000,3.58
2482,IA,Clay,51300,3.58
2483,IA,Lyon,51200,1.94
2484,IA,Osceola,51200,2.83
2485,IA,Osceola,51300,2.83
2486,IA,Dickinson,51300,3.85
2487,IA,Crawford,51400,4.08
2488,IA,Crawford,51500,4.08
2489,IA,Shelby,51400,2.78
2490,IA,Shelby,51500,2.78
2491,IA,Pottawattamie,51500,3.57
2492,IA,Harrison,51500,3.30
2493,IA,Mills,51500,3.97
2494,IA,Page,51600,4.04
2495,IA,Fremont,51600,3.27
2496,IA,Dubuque,52000,3.57
2497,IA,Jackson,52000,4.16
2498,IA,Jackson,52200,4.16
2499,IA,Jackson,52300,4.16
2500,IA,Clinton,52000,4.89
2501,IA,Clinton,52200,4.89
2502,IA,Clinton,52700,4.89
2503,IA,Clayton,52000,4.08
2504,IA,Clayton,52100,4.08
2505,IA,Winneshiek,52100,3.62
2506,IA,Allamakee,52100,4.82
2507,IA,Washington,52200,3.03
2508,IA,Washington,52300,3.03
2509,IA,Washington,52500,3.03
2510,IA,Washington,52600,3.03
2511,IA,Linn,52200,3.71
2512,IA,Linn,52300,3.71
2513,IA,Linn,52400,3.71
2514,IA,Iowa,52200,3.46
2515,IA,Iowa,52300,3.46
2516,IA,Jones,52200,4.07
2517,IA,Jones,52300,4.07
2518,IA,Benton,52200,3.79
2519,IA,Benton,52300,3.79
2520,IA,Cedar,52200,3.36
2521,IA,Cedar,52300,3.36
2522,IA,Cedar,52700,3.36
2523,IA,Johnson,52200,2.60
2524,IA,Johnson,52300,2.60
2525,IA,Johnson,52700,2.60
2526,IA,Wapello,52500,5.07
2527,IA,Jefferson,52500,3.74
2528,IA,Jefferson,52600,3.74
2529,IA,Davis,52500,4.38
2530,IA,Appanoose,52500,4.81
2531,IA,Lee,52600,5.32
2532,IA,Henry,52600,3.88
2533,IA,Louisa,52600,3.72
2534,IA,Louisa,52700,3.72
2535,IA,Muscatine,52700,3.81
2536,IA,Scott,52700,4.61
2537,IA,Scott,52800,4.61
2538,WI,Sheboygan,53000,3.82
2539,WI,Washington,53000,3.78
2540,WI,Dodge,53000,4.48
2541,WI,Dodge,53500,4.48
2542,WI,Dodge,53900,4.48
2543,WI,Ozaukee,53000,3.72
2544,WI,Waukesha,53000,3.83
2545,WI,Waukesha,53100,3.83
2546,WI,Calumet,53000,3.60
2547,WI,Calumet,54100,3.60
2548,WI,Manitowoc,53000,5.08
2549,WI,Manitowoc,54200,5.08
2550,WI,Jefferson,53000,4.28
2551,WI,Jefferson,53100,4.28
2552,WI,Jefferson,53500,4.28
2553,WI,Kenosha,53100,5.15
2554,WI,Racine,53100,5.67
2555,WI,Racine,53400,5.67
2556,WI,Milwaukee,53100,5.85
2557,WI,Milwaukee,53200,5.85
2558,WI,Walworth,53100,4.77
2559,WI,Walworth,53500,4.77
2560,WI,Rock,53500,5.23
2561,WI,Green,53500,3.82
2562,WI,Iowa,53500,4.26
2563,WI,Lafayette,53500,3.74
2564,WI,Lafayette,53800,3.74
2565,WI,Dane,53500,3.19
2566,WI,Dane,53700,3.19
2567,WI,Grant,53500,4.39
2568,WI,Grant,53800,4.39
2569,WI,Richland,53500,4.29
2570,WI,Richland,53900,4.29
2571,WI,Richland,54600,4.29
2572,WI,Columbia,53500,4.39
2573,WI,Columbia,53900,4.39
2574,WI,Sauk,53500,4.17
2575,WI,Sauk,53900,4.17
2576,WI,Crawford,53800,5.92
2577,WI,Crawford,54600,5.92
2578,WI,Adams,53900,7.38
2579,WI,Adams,54600,7.38
2580,WI,Marquette,53900,6.22
2581,WI,Marquette,54900,6.22
2582,WI,Juneau,53900,5.23
2583,WI,Juneau,54600,5.23
2584,WI,Polk,54000,4.91
2585,WI,Polk,54800,4.91
2586,WI,Pierce,54000,3.93
2587,WI,Pierce,54700,3.93
2588,WI,Oconto,54100,5.18
2589,WI,Marinette,54100,5.90
2590,WI,Forest,54100,7.54
2591,WI,Forest,54500,7.54
2592,WI,Outagamie,54100,4.02
2593,WI,Outagamie,54900,4.02
2594,WI,Shawano,54100,4.93
2595,WI,Shawano,54400,4.93
2596,WI,Shawano,54900,4.93
2597,WI,Brown,54100,4.10
2598,WI,Brown,54200,4.10
2599,WI,Brown,54300,4.10
2600,WI,Florence,54100,6.84
2601,WI,Florence,54500,6.84
2602,WI,Menominee,54100,9.86
2603,WI,Kewaunee,54200,4.10
2604,WI,Door,54200,6.93
2605,WI,Marathon,54400,4.06
2606,WI,Wood,54400,5.53
2607,WI,Clark,54400,4.42
2608,WI,Clark,54700,4.42
2609,WI,Portage,54400,4.63
2610,WI,Portage,54900,4.63
2611,WI,Langlade,54400,6.16
2612,WI,Taylor,54400,4.41
2613,WI,Lincoln,54400,5.15
2614,WI,Lincoln,54500,5.15
2615,WI,Price,54400,4.58
2616,WI,Price,54500,4.58
2617,WI,Oneida,54400,5.94
2618,WI,Oneida,54500,5.94
2619,WI,Vilas,54500,7.24
2620,WI,Ashland,54500,6.32
2621,WI,Ashland,54800,6.32
2622,WI,Iron,54500,8.84
2623,WI,Rusk,54500,5.57
2624,WI,Rusk,54700,5.57
2625,WI,Rusk,54800,5.57
2626,WI,Buffalo,54600,5.00
2627,WI,Buffalo,54700,5.00
2628,WI,Jackson,54600,4.85
2629,WI,Jackson,54700,4.85
2630,WI,Trempealeau,54600,3.98
2631,WI,Trempealeau,54700,3.98
2632,WI,Monroe,54600,4.47
2633,WI,Vernon,54600,4.16
2634,WI,Pepin,54700,4.25
2635,WI,Chippewa,54700,4.77
2636,WI,Dunn,54700,4.58
2637,WI,Barron,54700,5.06
2638,WI,Barron,54800,5.06
2639,WI,Washburn,54800,5.48
2640,WI,Bayfield,54800,8.43
2641,WI,Douglas,54800,5.06
2642,WI,Sawyer,54800,8.00
2643,WI,Burnett,54800,7.14
2644,WI,Winnebago,54900,4.30
2645,WI,Waupaca,54900,4.69
2646,WI,Waushara,54900,6.34
2647,MN,Washington,55000,3.17
2648,MN,Washington,55100,3.17
2649,MN,Chisago,55000,4.17
2650,MN,Anoka,55000,3.61
2651,MN,Anoka,55300,3.61
2652,MN,Anoka,55400,3.61
2653,MN,Isanti,55000,4.26
2654,MN,Pine,55000,5.53
2655,MN,Pine,55700,5.53
2656,MN,Goodhue,55000,3.54
2657,MN,Goodhue,55900,3.54
2658,MN,Dakota,55000,3.28
2659,MN,Dakota,55100,3.28
2660,MN,Dakota,55300,3.28
2661,MN,Rice,55000,3.57
2662,MN,Scott,55000,3.13
2663,MN,Scott,55300,3.13
2664,MN,Scott,56000,3.13
2665,MN,Wabasha,55000,3.62
2666,MN,Wabasha,55900,3.62
2667,MN,Steele,55000,3.35
2668,MN,Steele,55900,3.35
2669,MN,Steele,56000,3.35
2670,MN,Kanabec,55000,6.74
2671,MN,Kanabec,56300,6.74
2672,MN,Ramsey,55100,3.52
2673,MN,Hennepin,55100,3.28
2674,MN,Hennepin,55300,3.28
2675,MN,Hennepin,55400,3.28
2676,MN,Hennepin,55500,3.28
2677,MN,Wright,55300,3.67
2678,MN,Wright,55500,3.67
2679,MN,Sibley,55300,4.10
2680,MN,Sibley,56000,4.10
2681,MN,Sherburne,55300,4.00
2682,MN,Renville,55300,4.84
2683,MN,Renville,56200,4.84
2684,MN,Carver,55300,3.17
2685,MN,Carver,55400,3.17
2686,MN,Carver,55500,3.17
2687,MN,Meeker,55300,4.19
2688,MN,Meeker,56200,4.19
2689,MN,Stearns,55300,3.60
2690,MN,Stearns,56300,3.60
2691,MN,Lake,55600,4.80
2692,MN,Cook,55600,4.44
2693,MN,Carlton,55700,4.97
2694,MN,Itasca,55700,6.47
2695,MN,Itasca,56600,6.47
2696,MN,Aitkin,55700,6.00
2697,MN,Aitkin,56300,6.00
2698,MN,Aitkin,56400,6.00
2699,MN,Olmsted,55900,2.97
2700,MN,Mower,55900,3.23
2701,MN,Winona,55900,3.32
2702,MN,Houston,55900,3.83
2703,MN,Fillmore,55900,4.10
2704,MN,Dodge,55900,3.69
2705,MN,Nicollet,56000,2.67
2706,MN,Freeborn,56000,3.79
2707,MN,Faribault,56000,4.36
2708,MN,Brown,56000,4.13
2709,MN,Watonwan,56000,4.68
2710,MN,Watonwan,56100,4.68
2711,MN,Martin,56000,4.10
2712,MN,Martin,56100,4.10
2713,MN,Waseca,56000,4.21
2714,MN,Redwood,56000,3.90
2715,MN,Redwood,56100,3.90
2716,MN,Redwood,56200,3.90
2717,MN,Cottonwood,56100,4.74
2718,MN,Nobles,56100,3.23
2719,MN,Jackson,56100,4.02
2720,MN,Lincoln,56100,3.57
2721,MN,Murray,56100,4.39
2722,MN,Lyon,56100,3.22
2723,MN,Lyon,56200,3.22
2724,MN,Rock,56100,2.14
2725,MN,Pipestone,56100,3.26
2726,MN,Kandiyohi,56200,3.77
2727,MN,Stevens,56200,2.78
2728,MN,Swift,56200,6.02
2729,MN,Traverse,56200,4.09
2730,MN,Traverse,56500,4.09
2731,MN,Chippewa,56200,4.40
2732,MN,Grant,56200,4.83
2733,MN,Grant,56300,4.83
2734,MN,Grant,56500,4.83
2735,MN,Douglas,56300,3.42
2736,MN,Morrison,56300,5.41
2737,MN,Morrison,56400,5.41
2738,MN,Todd,56300,4.37
2739,MN,Todd,56400,4.37
2740,MN,Pope,56300,3.30
2741,MN,Benton,56300,4.43
2742,MN,Cass,56400,6.73
2743,MN,Cass,56600,6.73
2744,MN,Hubbard,56400,6.18
2745,MN,Wadena,56400,5.88
2746,MN,Becker,56500,4.43
2747,MN,Norman,56500,4.71
2748,MN,Clay,56500,3.08
2749,MN,Mahnomen,56500,5.38
2750,MN,Polk,56500,4.20
2751,MN,Polk,56600,4.20
2752,MN,Polk,56700,4.20
2753,MN,Wilkin,56500,3.35
2754,MN,Beltrami,56600,4.82
2755,MN,Clearwater,56600,9.18
2756,MN,Koochiching,56600,8.10
2757,MN,Roseau,56600,4.08
2758,MN,Roseau,56700,4.08
2759,MN,Pennington,56700,5.19
2760,MN,Marshall,56700,6.84
2761,MN,Kittson,56700,4.62
2762,SD,Union,57000,3.46
2763,SD,Brookings,57000,2.94
2764,SD,Brookings,57200,2.94
2765,SD,Minnehaha,57000,2.75
2766,SD,Minnehaha,57100,2.75
2767,SD,Clay,57000,3.11
2768,SD,Lincoln,57000,2.28
2769,SD,Turner,57000,2.71
2770,SD,Lake,57000,3.61
2771,SD,Moody,57000,3.47
2772,SD,Hutchinson,57000,2.53
2773,SD,Hutchinson,57300,2.53
2774,SD,Yankton,57000,2.65
2775,SD,Kingsbury,57000,3.03
2776,SD,Kingsbury,57200,3.03
2777,SD,Kingsbury,57300,3.03
2778,SD,Codington,57200,3.13
2779,SD,Deuel,57200,5.05
2780,SD,Grant,57200,2.95
2781,SD,Clark,57200,3.69
2782,SD,Clark,57300,3.69
2783,SD,Day,57200,4.95
2784,SD,Day,57400,4.95
2785,SD,Hamlin,57200,3.39
2786,SD,Roberts,57200,4.46
2787,SD,Marshall,57200,3.92
2788,SD,Marshall,57400,3.92
2789,SD,Davison,57300,2.59
2790,SD,Hanson,57300,3.38
2791,SD,Jerauld,57300,2.28
2792,SD,Douglas,57300,2.49
2793,SD,Sanborn,57300,2.58
2794,SD,Gregory,57300,3.19
2795,SD,Gregory,57500,3.19
2796,SD,Miner,57300,2.53
2797,SD,Beadle,57300,2.67
2798,SD,Brule,57300,2.73
2799,SD,Buffalo,57300,7.33
2800,SD,Hyde,57300,2.98
2801,SD,Hyde,57500,2.98
2802,SD,Hand,57300,2.37
2803,SD,Lyman,57300,4.73
2804,SD,Lyman,57500,4.73
2805,SD,Aurora,57300,2.24
2806,SD,Brown,57400,2.70
2807,SD,Walworth,57400,5.44
2808,SD,Walworth,57600,5.44
2809,SD,Spink,57400,3.14
2810,SD,Edmunds,57400,2.52
2811,SD,Faulk,57400,2.69
2812,SD,Potter,57400,3.30
2813,SD,Hughes,57500,2.45
2814,SD,Sully,57500,2.54
2815,SD,Jackson,57500,4.42
2816,SD,Jackson,57700,4.42
2817,SD,Tripp,57500,2.76
2818,SD,Jones,57500,3.06
2819,SD,Stanley,57500,2.43
2820,SD,Bennett,57500,5.17
2821,SD,Bennett,57700,5.17
2822,SD,Haakon,57500,2.28
2823,SD,Todd,57500,7.42
2824,SD,Mellette,57500,5.21
2825,SD,Perkins,57600,3.18
2826,SD,Corson,57600,5.14
2827,SD,Ziebach,57600,4.96
2828,SD,Dewey,57600,11.42
2829,SD,Meade,57600,3.22
2830,SD,Meade,57700,3.22
2831,SD,Campbell,57600,3.03
2832,SD,Harding,57600,2.51
2833,SD,Harding,57700,2.51
2834,SD,Pennington,57700,3.23
2835,SD,Shannon,57700,11.53
2836,SD,Butte,57700,3.45
2837,SD,Custer,57700,4.33
2838,SD,Lawrence,57700,3.26
2839,ND,Richland,58000,2.69
2840,ND,Cass,58000,2.22
2841,ND,Cass,58100,2.22
2842,ND,Traill,58000,2.80
2843,ND,Traill,58200,2.80
2844,ND,Sargent,58000,1.81
2845,ND,Ransom,58000,2.44
2846,ND,Barnes,58000,3.18
2847,ND,Barnes,58400,3.18
2848,ND,Steele,58000,2.21
2849,ND,Steele,58200,2.21
2850,ND,Walsh,58200,4.13
2851,ND,Nelson,58200,3.69
2852,ND,Nelson,58300,3.69
2853,ND,Pembina,58200,5.26
2854,ND,Cavalier,58200,2.76
2855,ND,Cavalier,58300,2.76
2856,ND,Ramsey,58300,3.37
2857,ND,Rolette,58300,10.06
2858,ND,Pierce,58300,4.20
2859,ND,Towner,58300,2.71
2860,ND,Bottineau,58300,4.28
2861,ND,Bottineau,58700,4.28
2862,ND,Wells,58300,3.95
2863,ND,Wells,58400,3.95
2864,ND,Benson,58300,4.53
2865,ND,Eddy,58300,4.65
2866,ND,Stutsman,58400,2.55
2867,ND,Lamoure,58400,2.46
2868,ND,Griggs,58400,2.28
2869,ND,Foster,58400,2.90
2870,ND,Kidder,58400,3.62
2871,ND,Sheridan,58400,4.97
2872,ND,Sheridan,58700,4.97
2873,ND,Dickey,58400,1.83
2874,ND,Logan,58400,2.76
2875,ND,Logan,58500,2.76
2876,ND,Burleigh,58400,2.33
2877,ND,Burleigh,58500,2.33
2878,ND,Morton,58500,3.02
2879,ND,Morton,58600,3.02
2880,ND,Mercer,58500,4.18
2881,ND,Emmons,58500,4.93
2882,ND,Sioux,58500,4.16
2883,ND,Grant,58500,3.14
2884,ND,Oliver,58500,5.65
2885,ND,Stark,58600,2.60
2886,ND,Slope,58600,2.56
2887,ND,Bowman,58600,1.84
2888,ND,Dunn,58600,1.89
2889,ND,Billings,58600,3.15
2890,ND,Adams,58600,2.89
2891,ND,Hettinger,58600,2.43
2892,ND,Ward,58700,3.10
2893,ND,Burke,58700,3.25
2894,ND,Divide,58700,1.77
2895,ND,Divide,58800,1.77
2896,ND,Renville,58700,3.28
2897,ND,Williams,58700,2.23
2898,ND,Williams,58800,2.23
2899,ND,Mountrail,58700,1.90
2900,MT,Stillwater,59000,3.69
2901,MT,Yellowstone,59000,3.26
2902,MT,Yellowstone,59100,3.26
2903,MT,Rosebud,59000,5.32
2904,MT,Rosebud,59300,5.32
2905,MT,Carbon,59000,3.61
2906,MT,Treasure,59000,4.93
2907,MT,Park,59000,4.82
2908,MT,Fergus,59000,4.16
2909,MT,Fergus,59400,4.16
2910,MT,Wheatland,59000,5.39
2911,MT,Wheatland,59400,5.39
2912,MT,Meagher,59000,3.57
2913,MT,Meagher,59600,3.57
2914,MT,Musselshell,59000,4.21
2915,MT,Garfield,59000,2.72
2916,MT,Garfield,59300,2.72
2917,MT,Petroleum,59000,5.07
2918,MT,Roosevelt,59200,5.18
2919,MT,Sheridan,59200,2.48
2920,MT,Richland,59200,3.18
2921,MT,Daniels,59200,2.57
2922,MT,Valley,59200,3.09
2923,MT,Dawson,59200,3.09
2924,MT,Dawson,59300,3.09
2925,MT,Phillips,59200,5.04
2926,MT,Phillips,59500,5.04
2927,MT,Custer,59300,3.26
2928,MT,Carter,59300,3.26
2929,MT,Fallon,59300,2.30
2930,MT,Prairie,59300,4.23
2931,MT,Wibaux,59300,3.28
2932,MT,Cascade,59400,3.98
2933,MT,Glacier,59400,9.02
2934,MT,Pondera,59400,4.48
2935,MT,Teton,59400,3.79
2936,MT,Chouteau,59400,2.93
2937,MT,Chouteau,59500,2.93
2938,MT,Toole,59400,3.36
2939,MT,Liberty,59400,2.63
2940,MT,Liberty,59500,2.63
2941,MT,Hill,59500,4.23
2942,MT,Blaine,59500,4.96
2943,MT,Jefferson,59600,4.01
2944,MT,Jefferson,59700,4.01
2945,MT,Broadwater,59600,4.97
2946,MT,Madison,59700,3.64
2947,MT,Powell,59700,4.53
2948,MT,Powell,59800,4.53
2949,MT,Gallatin,59700,2.96
2950,MT,Beaverhead,59700,3.41
2951,MT,Missoula,59800,3.86
2952,MT,Mineral,59800,8.27
2953,MT,Lake,59800,4.93
2954,MT,Lake,59900,4.93
2955,MT,Ravalli,59800,5.19
2956,MT,Sanders,59800,8.22
2957,MT,Granite,59800,6.12
2958,MT,Flathead,59900,5.68
2959,MT,Lincoln,59900,10.02
2960,IL,Lake,60000,5.46
2961,IL,Cook,60000,6.09
2962,IL,Cook,60100,6.09
2963,IL,Cook,60200,6.09
2964,IL,Cook,60300,6.09
2965,IL,Cook,60400,6.09
2966,IL,Cook,60500,6.09
2967,IL,Cook,60600,6.09
2968,IL,Cook,60700,6.09
2969,IL,Cook,60800,6.09
2970,IL,Kane,60100,5.82
2971,IL,Kane,60500,5.82
2972,IL,Ogle,60100,6.23
2973,IL,Ogle,61000,6.23
2974,IL,Will,60400,6.03
2975,IL,Will,60500,6.03
2976,IL,Grundy,60400,6.82
2977,IL,Livingston,60400,5.50
2978,IL,Livingston,60900,5.50
2979,IL,Livingston,61300,5.50
2980,IL,Livingston,61700,5.50
2981,IL,Kendall,60500,5.13
2982,IL,Lee,60500,5.45
2983,IL,Lee,61000,5.45
2984,IL,Lee,61300,5.45
2985,IL,Kankakee,60900,6.82
2986,IL,Iroquois,60900,5.74
2987,IL,Ford,60900,5.43
2988,IL,Ford,61700,5.43
2989,IL,Vermilion,60900,7.13
2990,IL,Vermilion,61800,7.13
2991,IL,Champaign,60900,5.23
2992,IL,Champaign,61800,5.23
2993,IL,Boone,61000,6.61
2994,IL,Stephenson,61000,6.69
2995,IL,Carroll,61000,5.52
2996,IL,Carroll,61200,5.52
2997,IL,Winnebago,61000,7.09
2998,IL,Winnebago,61100,7.09
2999,IL,Whiteside,61000,6.28
3000,IL,Whiteside,61200,6.28
3001,IL,Mercer,61200,6.24
3002,IL,Mercer,61400,6.24
3003,IL,Henry,61200,6.23
3004,IL,Henry,61400,6.23
3005,IL,Bureau,61300,6.54
3006,IL,Putnam,61300,6.38
3007,IL,Putnam,61500,6.38
3008,IL,Marshall,61300,6.66
3009,IL,Marshall,61400,6.66
3010,IL,Marshall,61500,6.66
3011,IL,Knox,61400,6.21
3012,IL,Knox,61500,6.21
3013,IL,Fulton,61400,7.70
3014,IL,Fulton,61500,7.70
3015,IL,Warren,61400,5.43
3016,IL,Henderson,61400,5.92
3017,IL,Stark,61400,6.60
3018,IL,Stark,61500,6.60
3019,IL,Hancock,61400,6.40
3020,IL,Hancock,62300,6.40
3021,IL,Peoria,61400,6.92
3022,IL,Peoria,61500,6.92
3023,IL,Peoria,61600,6.92
3024,IL,Schuyler,61400,5.88
3025,IL,Schuyler,62300,5.88
3026,IL,Schuyler,62600,5.88
3027,IL,Woodford,61500,5.07
3028,IL,Woodford,61700,5.07
3029,IL,Mason,61500,7.19
3030,IL,Mason,62600,7.19
3031,IL,Tazewell,61500,6.31
3032,IL,Tazewell,61600,6.31
3033,IL,Tazewell,61700,6.31
3034,IL,Logan,61700,5.51
3035,IL,Logan,62500,5.51
3036,IL,Logan,62600,5.51
3037,IL,Macon,61700,7.10
3038,IL,Macon,62500,7.10
3039,IL,Piatt,61800,5.10
3040,IL,Piatt,61900,5.10
3041,IL,Douglas,61900,4.97
3042,IL,Coles,61900,6.21
3043,IL,Coles,62400,6.21
3044,IL,Moultrie,61900,4.41
3045,IL,Edgar,61900,6.40
3046,IL,Shelby,61900,6.05
3047,IL,Shelby,62400,6.05
3048,IL,Shelby,62500,6.05
3049,IL,Madison,62000,6.07
3050,IL,Madison,62200,6.07
3051,IL,Calhoun,62000,6.82
3052,IL,Macoupin,62000,6.35
3053,IL,Macoupin,62500,6.35
3054,IL,Macoupin,62600,6.35
3055,IL,Fayette,62000,6.48
3056,IL,Fayette,62200,6.48
3057,IL,Fayette,62400,6.48
3058,IL,Fayette,62800,6.48
3059,IL,Jersey,62000,6.34
3060,IL,Montgomery,62000,7.68
3061,IL,Montgomery,62500,7.68
3062,IL,Greene,62000,6.21
3063,IL,Bond,62000,5.33
3064,IL,Bond,62200,5.33
3065,IL,Christian,62000,6.64
3066,IL,Christian,62500,6.64
3067,IL,Washington,62200,3.89
3068,IL,Washington,62800,3.89
3069,IL,Clinton,62200,4.53
3070,IL,Randolph,62200,5.52
3071,IL,Monroe,62200,4.43
3072,IL,Perry,62200,7.24
3073,IL,Perry,62800,7.24
3074,IL,Perry,62900,7.24
3075,IL,Adams,62300,5.03
3076,IL,Pike,62300,5.18
3077,IL,Brown,62300,3.71
3078,IL,Effingham,62400,4.85
3079,IL,Wabash,62400,5.65
3080,IL,Wabash,62800,5.65
3081,IL,Crawford,62400,5.96
3082,IL,Lawrence,62400,7.13
3083,IL,Richland,62400,6.02
3084,IL,Richland,62800,6.02
3085,IL,Clark,62400,6.25
3086,IL,Cumberland,62400,5.37
3087,IL,Jasper,62400,6.33
3088,IL,Clay,62400,7.08
3089,IL,Clay,62800,7.08
3090,IL,Wayne,62400,6.96
3091,IL,Wayne,62800,6.96
3092,IL,Edwards,62400,6.00
3093,IL,Edwards,62800,6.00
3094,IL,Sangamon,62500,5.28
3095,IL,Sangamon,62600,5.28
3096,IL,Sangamon,62700,5.28
3097,IL,Morgan,62600,5.07
3098,IL,Scott,62600,5.81
3099,IL,Cass,62600,5.70
3100,IL,Menard,62600,4.77
3101,IL,Marion,62800,6.88
3102,IL,Franklin,62800,8.19
3103,IL,Franklin,62900,8.19
3104,IL,Jefferson,62800,6.78
3105,IL,Hamilton,62800,5.32
3106,IL,White,62800,5.80
3107,IL,Williamson,62800,6.24
3108,IL,Williamson,62900,6.24
3109,IL,Gallatin,62800,6.88
3110,IL,Gallatin,62900,6.88
3111,IL,Jackson,62900,5.63
3112,IL,Union,62900,7.76
3113,IL,Johnson,62900,8.58
3114,IL,Massac,62900,7.36
3115,IL,Alexander,62900,8.59
3116,IL,Saline,62900,7.69
3117,IL,Hardin,62900,8.17
3118,IL,Pope,62900,6.95
3119,IL,Pulaski,62900,8.98
3120,MO,Jefferson,63000,4.87
3121,MO,Franklin,63000,5.04
3122,MO,Washington,63000,6.63
3123,MO,Washington,63600,6.63
3124,MO,Gasconade,63000,4.22
3125,MO,Gasconade,65000,4.22
3126,MO,Saint Louis City,63100,6.04
3127,MO,Pike,63300,4.61
3128,MO,Pike,63400,4.61
3129,MO,Montgomery,63300,4.99
3130,MO,Montgomery,65000,4.99
3131,MO,Warren,63300,4.77
3132,MO,Lincoln,63300,5.14
3133,MO,Audrain,63300,4.64
3134,MO,Audrain,65200,4.64
3135,MO,Callaway,63300,4.68
3136,MO,Callaway,65000,4.68
3137,MO,Callaway,65200,4.68
3138,MO,Marion,63400,4.43
3139,MO,Clark,63400,7.08
3140,MO,Macon,63400,5.34
3141,MO,Macon,63500,5.34
3142,MO,Macon,65200,5.34
3143,MO,Scotland,63400,4.48
3144,MO,Scotland,63500,4.48
3145,MO,Shelby,63400,4.75
3146,MO,Lewis,63400,4.89
3147,MO,Ralls,63400,4.23
3148,MO,Knox,63400,3.97
3149,MO,Knox,63500,3.97
3150,MO,Monroe,63400,5.27
3151,MO,Monroe,65200,5.27
3152,MO,Adair,63500,5.61
3153,MO,Schuyler,63500,5.83
3154,MO,Sullivan,63500,5.92
3155,MO,Sullivan,64600,5.92
3156,MO,Putnam,63500,4.00
3157,MO,Putnam,64600,4.00
3158,MO,Linn,63500,6.96
3159,MO,Linn,64600,6.96
3160,MO,Iron,63600,7.82
3161,MO,Iron,65400,7.82
3162,MO,Iron,65500,7.82
3163,MO,Reynolds,63600,6.96
3164,MO,Wayne,63600,5.81
3165,MO,Wayne,63700,5.81
3166,MO,Wayne,63900,5.81
3167,MO,Madison,63600,5.81
3168,MO,Bollinger,63600,5.59
3169,MO,Bollinger,63700,5.59
3170,MO,Stoddard,63700,6.58
3171,MO,Stoddard,63800,6.58
3172,MO,Stoddard,63900,6.58
3173,MO,Perry,63700,4.18
3174,MO,Scott,63700,5.26
3175,MO,Scott,63800,5.26
3176,MO,Mississippi,63800,5.86
3177,MO,Dunklin,63800,7.95
3178,MO,Dunklin,63900,7.95
3179,MO,Pemiscot,63800,9.06
3180,MO,Butler,63900,6.15
3181,MO,Ripley,63900,7.93
3182,MO,Carter,63900,7.48
3183,MO,Lafayette,64000,4.79
3184,MO,Lafayette,65300,4.79
3185,MO,Cass,64000,4.78
3186,MO,Cass,64700,4.78
3187,MO,Jackson,64000,5.85
3188,MO,Jackson,64100,5.85
3189,MO,Jackson,64900,5.85
3190,MO,Ray,64000,5.43
3191,MO,Platte,64000,4.19
3192,MO,Platte,64100,4.19
3193,MO,Platte,64400,4.19
3194,MO,Johnson,64000,5.40
3195,MO,Johnson,64700,5.40
3196,MO,Johnson,65300,5.40
3197,MO,Clay,64000,4.52
3198,MO,Clay,64100,4.52
3199,MO,Buchanan,64400,4.61
3200,MO,Buchanan,64500,4.61
3201,MO,Gentry,64400,4.21
3202,MO,Gentry,64600,4.21
3203,MO,Worth,64400,3.22
3204,MO,Andrew,64400,4.16
3205,MO,Dekalb,64400,4.64
3206,MO,Nodaway,64400,4.93
3207,MO,Harrison,64400,5.07
3208,MO,Harrison,64600,5.07
3209,MO,Clinton,64400,4.86
3210,MO,Holt,64400,3.65
3211,MO,Atchison,64400,4.51
3212,MO,Livingston,64600,4.29
3213,MO,Daviess,64600,4.58
3214,MO,Carroll,64600,5.93
3215,MO,Caldwell,64600,4.49
3216,MO,Grundy,64600,4.11
3217,MO,Chariton,64600,4.68
3218,MO,Chariton,65200,4.68
3219,MO,Mercer,64600,4.45
3220,MO,Bates,64700,6.03
3221,MO,Henry,64700,5.45
3222,MO,Henry,65300,5.45
3223,MO,Vernon,64700,4.97
3224,MO,Cedar,64700,5.30
3225,MO,Cedar,65600,5.30
3226,MO,Cedar,65700,5.30
3227,MO,Barton,64700,5.45
3228,MO,Jasper,64700,4.25
3229,MO,Jasper,64800,4.25
3230,MO,Newton,64800,4.52
3231,MO,Barry,64800,4.95
3232,MO,Barry,65600,4.95
3233,MO,Barry,65700,4.95
3234,MO,Osage,65000,3.74
3235,MO,Boone,65000,3.49
3236,MO,Boone,65200,3.49
3237,MO,Morgan,65000,6.72
3238,MO,Morgan,65300,6.72
3239,MO,Maries,65000,5.26
3240,MO,Maries,65400,5.26
3241,MO,Maries,65500,5.26
3242,MO,Miller,65000,5.97
3243,MO,Miller,65400,5.97
3244,MO,Moniteau,65000,4.89
3245,MO,Camden,65000,6.54
3246,MO,Camden,65300,6.54
3247,MO,Camden,65500,6.54
3248,MO,Camden,65700,6.54
3249,MO,Cole,65000,3.98
3250,MO,Cole,65100,3.98
3251,MO,Cooper,65000,5.81
3252,MO,Cooper,65200,5.81
3253,MO,Cooper,65300,5.81
3254,MO,Howard,65200,4.88
3255,MO,Randolph,65200,5.93
3256,MO,Pettis,65300,5.28
3257,MO,Saline,65300,4.73
3258,MO,Benton,65300,6.49
3259,MO,Phelps,65400,5.29
3260,MO,Phelps,65500,5.29
3261,MO,Texas,65400,6.63
3262,MO,Texas,65500,6.63
3263,MO,Texas,65600,6.63
3264,MO,Shannon,65400,8.08
3265,MO,Shannon,65500,8.08
3266,MO,Dent,65400,5.82
3267,MO,Dent,65500,5.82
3268,MO,Crawford,65400,6.02
3269,MO,Crawford,65500,6.02
3270,MO,Pulaski,65400,5.84
3271,MO,Pulaski,65500,5.84
3272,MO,Laclede,65400,6.36
3273,MO,Laclede,65500,6.36
3274,MO,Laclede,65600,6.36
3275,MO,Laclede,65700,6.36
3276,MO,Howell,65500,6.42
3277,MO,Howell,65600,6.42
3278,MO,Howell,65700,6.42
3279,MO,Dallas,65500,6.15
3280,MO,Dallas,65600,6.15
3281,MO,Dallas,65700,6.15
3282,MO,Polk,65600,5.23
3283,MO,Polk,65700,5.23
3284,MO,Dade,65600,5.11
3285,MO,Dade,65700,5.11
3286,MO,Greene,65600,4.12
3287,MO,Greene,65700,4.12
3288,MO,Greene,65800,4.12
3289,MO,Lawrence,65600,4.89
3290,MO,Lawrence,65700,4.89
3291,MO,Oregon,65600,6.28
3292,MO,Oregon,65700,6.28
3293,MO,Douglas,65600,6.82
3294,MO,Douglas,65700,6.82
3295,MO,Ozark,65600,7.90
3296,MO,Ozark,65700,7.90
3297,MO,Christian,65600,4.18
3298,MO,Christian,65700,4.18
3299,MO,Stone,65600,7.88
3300,MO,Stone,65700,7.88
3301,MO,Taney,65600,8.14
3302,MO,Taney,65700,8.14
3303,MO,Hickory,65600,6.68
3304,MO,Hickory,65700,6.68
3305,MO,Webster,65600,5.03
3306,MO,Webster,65700,5.03
3307,MO,Wright,65600,6.17
3308,MO,Wright,65700,6.17
3309,KS,Atchison,66000,6.14
3310,KS,Douglas,66000,3.69
3311,KS,Leavenworth,66000,4.54
3312,KS,Doniphan,66000,4.39
3313,KS,Linn,66000,6.43
3314,KS,Linn,66700,6.43
3315,KS,Wyandotte,66000,6.09
3316,KS,Wyandotte,66100,6.09
3317,KS,Miami,66000,4.31
3318,KS,Anderson,66000,4.95
3319,KS,Johnson,66000,3.41
3320,KS,Johnson,66200,3.41
3321,KS,Franklin,66000,4.63
3322,KS,Jefferson,66000,4.24
3323,KS,Jefferson,66400,4.24
3324,KS,Jefferson,66500,4.24
3325,KS,Wabaunsee,66400,3.85
3326,KS,Wabaunsee,66500,3.85
3327,KS,Wabaunsee,66800,3.85
3328,KS,Shawnee,66400,4.30
3329,KS,Shawnee,66500,4.30
3330,KS,Shawnee,66600,4.30
3331,KS,Marshall,66400,2.94
3332,KS,Marshall,66500,2.94
3333,KS,Nemaha,66400,2.61
3334,KS,Nemaha,66500,2.61
3335,KS,Pottawatomie,66400,3.56
3336,KS,Pottawatomie,66500,3.56
3337,KS,Osage,66400,5.01
3338,KS,Osage,66500,5.01
3339,KS,Jackson,66400,3.72
3340,KS,Jackson,66500,3.72
3341,KS,Brown,66400,4.03
3342,KS,Brown,66500,4.03
3343,KS,Geary,66400,6.21
3344,KS,Geary,66500,6.21
3345,KS,Riley,66400,3.29
3346,KS,Riley,66500,3.29
3347,KS,Bourbon,66700,4.87
3348,KS,Wilson,66700,6.66
3349,KS,Crawford,66700,5.14
3350,KS,Cherokee,66700,4.49
3351,KS,Neosho,66700,7.49
3352,KS,Allen,66700,5.18
3353,KS,Woodson,66700,5.13
3354,KS,Lyon,66800,4.37
3355,KS,Morris,66800,4.34
3356,KS,Coffey,66800,5.76
3357,KS,Marion,66800,3.87
3358,KS,Marion,67000,3.87
3359,KS,Marion,67400,3.87
3360,KS,Butler,66800,4.29
3361,KS,Butler,67000,4.29
3362,KS,Butler,67100,4.29
3363,KS,Chase,66800,3.69
3364,KS,Greenwood,66800,4.72
3365,KS,Greenwood,67000,4.72
3366,KS,Greenwood,67100,4.72
3367,KS,Cloud,66900,3.85
3368,KS,Cloud,67400,3.85
3369,KS,Republic,66900,2.82
3370,KS,Smith,66900,3.94
3371,KS,Smith,67600,3.94
3372,KS,Washington,66900,3.18
3373,KS,Jewell,66900,4.46
3374,KS,Sedgwick,67000,4.81
3375,KS,Sedgwick,67100,4.81
3376,KS,Sedgwick,67200,4.81
3377,KS,Harper,67000,3.94
3378,KS,Harper,67100,3.94
3379,KS,Sumner,67000,4.48
3380,KS,Sumner,67100,4.48
3381,KS,Cowley,67000,4.67
3382,KS,Cowley,67100,4.67
3383,KS,Harvey,67000,3.93
3384,KS,Harvey,67100,3.93
3385,KS,Pratt,67000,4.10
3386,KS,Pratt,67100,4.10
3387,KS,Chautauqua,67000,5.81
3388,KS,Chautauqua,67300,5.81
3389,KS,Comanche,67000,3.42
3390,KS,Comanche,67100,3.42
3391,KS,Kingman,67000,4.36
3392,KS,Kingman,67100,4.36
3393,KS,Kiowa,67000,3.03
3394,KS,Kiowa,67100,3.03
3395,KS,Barber,67000,4.33
3396,KS,Barber,67100,4.33
3397,KS,Montgomery,67300,6.52
3398,KS,Labette,67300,5.81
3399,KS,Elk,67300,4.90
3400,KS,Saline,67400,3.83
3401,KS,Dickinson,67400,5.24
3402,KS,Lincoln,67400,3.50
3403,KS,Mitchell,67400,3.36
3404,KS,Ottawa,67400,3.85
3405,KS,Rice,67400,3.82
3406,KS,Rice,67500,3.82
3407,KS,Clay,67400,4.35
3408,KS,Osborne,67400,3.57
3409,KS,Osborne,67600,3.57
3410,KS,Ellsworth,67400,3.73
3411,KS,Reno,67500,4.34
3412,KS,Barton,67500,4.31
3413,KS,Rush,67500,3.57
3414,KS,Ness,67500,3.28
3415,KS,Edwards,67500,3.32
3416,KS,Pawnee,67500,3.73
3417,KS,Stafford,67500,4.05
3418,KS,Ellis,67600,3.03
3419,KS,Phillips,67600,3.29
3420,KS,Norton,67600,2.53
3421,KS,Graham,67600,3.98
3422,KS,Russell,67600,3.79
3423,KS,Trego,67600,3.60
3424,KS,Rooks,67600,4.63
3425,KS,Decatur,67600,3.76
3426,KS,Decatur,67700,3.76
3427,KS,Thomas,67700,2.68
3428,KS,Rawlins,67700,2.34
3429,KS,Cheyenne,67700,2.76
3430,KS,Sherman,67700,3.00
3431,KS,Gove,67700,2.58
3432,KS,Sheridan,67700,2.30
3433,KS,Logan,67700,2.45
3434,KS,Wallace,67700,2.72
3435,KS,Ford,67800,3.43
3436,KS,Clark,67800,2.48
3437,KS,Gray,67800,2.34
3438,KS,Hamilton,67800,2.01
3439,KS,Kearny,67800,3.17
3440,KS,Lane,67800,3.44
3441,KS,Meade,67800,3.03
3442,KS,Finney,67800,3.55
3443,KS,Hodgeman,67800,3.23
3444,KS,Stanton,67800,3.05
3445,KS,Seward,67800,4.37
3446,KS,Seward,67900,4.37
3447,KS,Wichita,67800,2.99
3448,KS,Haskell,67800,2.57
3449,KS,Scott,67800,2.81
3450,KS,Greeley,67800,2.21
3451,KS,Grant,67800,3.65
3452,KS,Morton,67900,4.33
3453,KS,Stevens,67900,3.75
3454,NE,Butler,68000,2.79
3455,NE,Butler,68600,2.79
3456,NE,Washington,68000,2.96
3457,NE,Saunders,68000,3.05
3458,NE,Saunders,68600,3.05
3459,NE,Cuming,68000,2.63
3460,NE,Cuming,68700,2.63
3461,NE,Sarpy,68000,2.78
3462,NE,Sarpy,68100,2.78
3463,NE,Douglas,68000,3.28
3464,NE,Douglas,68100,3.28
3465,NE,Cass,68000,3.28
3466,NE,Cass,68300,3.28
3467,NE,Cass,68400,3.28
3468,NE,Burt,68000,3.63
3469,NE,Dodge,68000,3.26
3470,NE,Dodge,68600,3.26
3471,NE,Dakota,68000,3.53
3472,NE,Dakota,68700,3.53
3473,NE,Thurston,68000,5.29
3474,NE,Gage,68300,3.60
3475,NE,Gage,68400,3.60
3476,NE,Thayer,68300,2.37
3477,NE,Thayer,68400,2.37
3478,NE,Nemaha,68300,3.67
3479,NE,Nemaha,68400,3.67
3480,NE,Seward,68300,2.86
3481,NE,Seward,68400,2.86
3482,NE,York,68300,2.91
3483,NE,York,68400,2.91
3484,NE,Lancaster,68300,2.61
3485,NE,Lancaster,68400,2.61
3486,NE,Lancaster,68500,2.61
3487,NE,Pawnee,68300,2.58
3488,NE,Pawnee,68400,2.58
3489,NE,Otoe,68300,3.27
3490,NE,Otoe,68400,3.27
3491,NE,Johnson,68300,3.28
3492,NE,Johnson,68400,3.28
3493,NE,Saline,68300,2.92
3494,NE,Saline,68400,2.92
3495,NE,Richardson,68300,3.22
3496,NE,Richardson,68400,3.22
3497,NE,Jefferson,68300,2.71
3498,NE,Jefferson,68400,2.71
3499,NE,Fillmore,68300,2.91
3500,NE,Fillmore,68400,2.91
3501,NE,Clay,68400,2.91
3502,NE,Clay,68900,2.91
3503,NE,Platte,68600,2.96
3504,NE,Boone,68600,2.44
3505,NE,Wheeler,68600,2.42
3506,NE,Nance,68600,2.44
3507,NE,Merrick,68600,3.69
3508,NE,Merrick,68800,3.69
3509,NE,Colfax,68600,2.62
3510,NE,Antelope,68600,2.53
3511,NE,Antelope,68700,2.53
3512,NE,Polk,68600,2.53
3513,NE,Greeley,68600,3.07
3514,NE,Greeley,68800,3.07
3515,NE,Madison,68700,2.74
3516,NE,Dixon,68700,3.32
3517,NE,Holt,68700,2.38
3518,NE,Rock,68700,2.63
3519,NE,Cedar,68700,2.40
3520,NE,Knox,68700,3.18
3521,NE,Boyd,68700,2.61
3522,NE,Wayne,68700,2.56
3523,NE,Pierce,68700,2.53
3524,NE,Stanton,68700,2.55
3525,NE,Hall,68800,3.91
3526,NE,Buffalo,68800,2.41
3527,NE,Custer,68800,2.22
3528,NE,Custer,69100,2.22
3529,NE,Valley,68800,2.78
3530,NE,Sherman,68800,2.89
3531,NE,Hamilton,68800,2.84
3532,NE,Howard,68800,3.63
3533,NE,Blaine,68800,4.48
3534,NE,Blaine,69100,4.48
3535,NE,Garfield,68800,2.38
3536,NE,Dawson,68800,3.15
3537,NE,Dawson,69000,3.15
3538,NE,Dawson,69100,3.15
3539,NE,Loup,68800,3.51
3540,NE,Adams,68900,3.13
3541,NE,Harlan,68900,2.14
3542,NE,Furnas,68900,2.66
3543,NE,Furnas,69000,2.66
3544,NE,Phelps,68900,2.38
3545,NE,Kearney,68900,2.21
3546,NE,Webster,68900,3.56
3547,NE,Franklin,68900,2.43
3548,NE,Gosper,68900,2.47
3549,NE,Nuckolls,68900,2.53
3550,NE,Dundy,69000,2.12
3551,NE,Chase,69000,1.89
3552,NE,Hitchcock,69000,3.26
3553,NE,Frontier,69000,2.49
3554,NE,Hayes,69000,2.33
3555,NE,Lincoln,69100,2.88
3556,NE,Arthur,69100,4.52
3557,NE,Deuel,69100,2.47
3558,NE,Morrill,69100,2.88
3559,NE,Morrill,69300,2.88
3560,NE,Keith,69100,2.64
3561,NE,Kimball,69100,3.56
3562,NE,Cheyenne,69100,2.15
3563,NE,Perkins,69100,1.84
3564,NE,Cherry,69100,2.30
3565,NE,Cherry,69200,2.30
3566,NE,Thomas,69100,2.93
3567,NE,Garden,69100,2.45
3568,NE,Hooker,69100,4.21
3569,NE,Logan,69100,2.93
3570,NE,Brown,69200,3.71
3571,NE,Grant,69300,2.22
3572,NE,Sheridan,69300,2.68
3573,NE,Dawes,69300,2.57
3574,NE,Banner,69300,3.39
3575,NE,Sioux,69300,2.47
3576,AR,Jefferson,71600,7.25
3577,AR,Jefferson,72000,7.25
3578,AR,Jefferson,72100,7.25
3579,AR,Desha,71600,7.59
3580,AR,Desha,72300,7.59
3581,AR,Bradley,71600,6.23
3582,AR,Ashley,71600,7.98
3583,AR,Chicot,71600,9.37
3584,AR,Lincoln,71600,6.36
3585,AR,Drew,71600,7.15
3586,AR,Cleveland,71600,5.76
3587,AR,Ouachita,71700,6.63
3588,AR,Clark,71700,5.73
3589,AR,Clark,71900,5.73
3590,AR,Nevada,71700,5.21
3591,AR,Nevada,71800,5.21
3592,AR,Union,71700,6.40
3593,AR,Dallas,71700,7.45
3594,AR,Columbia,71700,6.76
3595,AR,Columbia,71800,6.76
3596,AR,Calhoun,71700,5.78
3597,AR,Hempstead,71800,5.15
3598,AR,Sevier,71800,6.33
3599,AR,Lafayette,71800,7.93
3600,AR,Howard,71800,4.40
3601,AR,Howard,71900,4.40
3602,AR,Miller,71800,5.20
3603,AR,Garland,71900,5.67
3604,AR,Garland,72000,5.67
3605,AR,Pike,71900,6.22
3606,AR,Polk,71900,5.99
3607,AR,Montgomery,71900,7.01
3608,AR,Perry,72000,6.29
3609,AR,Perry,72100,6.29
3610,AR,Pulaski,72000,4.73
3611,AR,Pulaski,72100,4.73
3612,AR,Pulaski,72200,4.73
3613,AR,Arkansas,72000,4.38
3614,AR,Arkansas,72100,4.38
3615,AR,Jackson,72000,7.79
3616,AR,Jackson,72100,7.79
3617,AR,Jackson,72400,7.79
3618,AR,Woodruff,72000,6.69
3619,AR,Woodruff,72100,6.69
3620,AR,Lonoke,72000,4.35
3621,AR,Lonoke,72100,4.35
3622,AR,White,72000,6.45
3623,AR,White,72100,6.45
3624,AR,Saline,72000,4.25
3625,AR,Saline,72100,4.25
3626,AR,Prairie,72000,4.83
3627,AR,Prairie,72100,4.83
3628,AR,Monroe,72000,6.27
3629,AR,Monroe,72100,6.27
3630,AR,Conway,72000,6.31
3631,AR,Conway,72100,6.31
3632,AR,Faulkner,72000,4.85
3633,AR,Faulkner,72100,4.85
3634,AR,Cleburne,72000,7.20
3635,AR,Cleburne,72100,7.20
3636,AR,Cleburne,72500,7.20
3637,AR,Stone,72000,6.53
3638,AR,Stone,72500,6.53
3639,AR,Stone,72600,6.53
3640,AR,Grant,72000,4.69
3641,AR,Grant,72100,4.69
3642,AR,Independence,72100,6.70
3643,AR,Independence,72500,6.70
3644,AR,Crittenden,72300,6.36
3645,AR,Mississippi,72300,9.31
3646,AR,Mississippi,72400,9.31
3647,AR,Lee,72300,6.88
3648,AR,Phillips,72300,7.90
3649,AR,Cross,72300,5.63
3650,AR,Poinsett,72300,5.70
3651,AR,Poinsett,72400,5.70
3652,AR,Craighead,72400,4.58
3653,AR,Lawrence,72400,6.23
3654,AR,Lawrence,72500,6.23
3655,AR,Greene,72400,5.36
3656,AR,Randolph,72400,7.38
3657,AR,Clay,72400,6.85
3658,AR,Sharp,72400,7.14
3659,AR,Sharp,72500,7.14
3660,AR,Izard,72500,6.87
3661,AR,Fulton,72500,5.35
3662,AR,Baxter,72500,5.68
3663,AR,Baxter,72600,5.68
3664,AR,Boone,72600,5.08
3665,AR,Carroll,72600,4.78
3666,AR,Marion,72600,5.44
3667,AR,Newton,72600,5.03
3668,AR,Searcy,72600,5.82
3669,AR,Pope,72600,5.51
3670,AR,Pope,72800,5.51
3671,AR,Washington,72700,3.62
3672,AR,Washington,72900,3.62
3673,AR,Benton,72700,3.88
3674,AR,Madison,72700,3.94
3675,AR,Franklin,72800,5.15
3676,AR,Franklin,72900,5.15
3677,AR,Yell,72800,5.30
3678,AR,Logan,72800,5.94
3679,AR,Logan,72900,5.94
3680,AR,Johnson,72800,5.99
3681,AR,Scott,72800,4.98
3682,AR,Scott,72900,4.98
3683,AR,Sebastian,72900,5.01
3684,AR,Crawford,72900,5.38
3685,OK,Caddo,73000,5.00
3686,OK,Grady,73000,4.32
3687,OK,Oklahoma,73000,3.78
3688,OK,Oklahoma,73100,3.78
3689,OK,Oklahoma,74800,3.78
3690,OK,Stephens,73000,5.73
3691,OK,Stephens,73400,5.73
3692,OK,Stephens,73500,5.73
3693,OK,Canadian,73000,3.47
3694,OK,Canadian,73700,3.47
3695,OK,Kingfisher,73000,3.01
3696,OK,Kingfisher,73700,3.01
3697,OK,Cleveland,73000,3.39
3698,OK,Cleveland,73100,3.39
3699,OK,Washita,73000,5.33
3700,OK,Washita,73600,5.33
3701,OK,Logan,73000,3.64
3702,OK,Murray,73000,4.09
3703,OK,Blaine,73000,3.69
3704,OK,Blaine,73700,3.69
3705,OK,Kiowa,73000,4.50
3706,OK,Kiowa,73500,4.50
3707,OK,Kiowa,73600,4.50
3708,OK,Garvin,73000,4.50
3709,OK,Garvin,73400,4.50
3710,OK,Garvin,74800,4.50
3711,OK,Noble,73000,3.44
3712,OK,Noble,73700,3.44
3713,OK,Noble,74600,3.44
3714,OK,Custer,73000,3.89
3715,OK,Custer,73600,3.89
3716,TX,Travis,73300,3.27
3717,TX,Travis,78600,3.27
3718,TX,Travis,78700,3.27
3719,OK,Carter,73400,4.37
3720,OK,Love,73400,3.43
3721,OK,Johnston,73400,6.38
3722,OK,Johnston,74500,6.38
3723,OK,Johnston,74800,6.38
3724,OK,Marshall,73400,5.29
3725,OK,Bryan,73400,4.43
3726,OK,Bryan,74700,4.43
3727,OK,Jefferson,73400,5.57
3728,OK,Jefferson,73500,5.57
3729,OK,Comanche,73500,4.20
3730,OK,Jackson,73500,3.97
3731,OK,Tillman,73500,4.19
3732,OK,Cotton,73500,3.99
3733,OK,Harmon,73500,3.36
3734,OK,Greer,73500,5.44
3735,OK,Greer,73600,5.44
3736,OK,Beckham,73600,4.83
3737,OK,Dewey,73600,3.56
3738,OK,Dewey,73800,3.56
3739,OK,Garfield,73700,3.85
3740,OK,Garfield,74600,3.85
3741,OK,Alfalfa,73700,2.88
3742,OK,Woods,73700,2.64
3743,OK,Woods,73800,2.64
3744,OK,Major,73700,3.13
3745,OK,Major,73800,3.13
3746,OK,Grant,73700,2.77
3747,OK,Grant,74600,2.77
3748,OK,Woodward,73800,4.93
3749,OK,Ellis,73800,3.88
3750,OK,Harper,73800,2.92
3751,OK,Beaver,73800,2.64
3752,OK,Beaver,73900,2.64
3753,OK,Texas,73900,3.14
3754,OK,Cimarron,73900,2.24
3755,OK,Osage,74000,5.06
3756,OK,Osage,74100,5.06
3757,OK,Osage,74600,5.06
3758,OK,Washington,74000,4.16
3759,OK,Tulsa,74000,4.01
3760,OK,Tulsa,74100,4.01
3761,OK,Creek,74000,4.77
3762,OK,Creek,74100,4.77
3763,OK,Wagoner,74000,4.03
3764,OK,Wagoner,74400,4.03
3765,OK,Rogers,74000,4.23
3766,OK,Pawnee,74000,5.58
3767,OK,Pawnee,74600,5.58
3768,OK,Payne,74000,3.41
3769,OK,Lincoln,74000,4.46
3770,OK,Lincoln,74800,4.46
3771,OK,Nowata,74000,5.47
3772,OK,Craig,74300,4.65
3773,OK,Mayes,74300,4.20
3774,OK,Ottawa,74300,4.98
3775,OK,Delaware,74300,4.83
3776,OK,Muskogee,74400,4.97
3777,OK,Okmulgee,74400,6.42
3778,OK,Pittsburg,74400,5.55
3779,OK,Pittsburg,74500,5.55
3780,OK,Cherokee,74400,5.00
3781,OK,Sequoyah,74400,6.13
3782,OK,Sequoyah,74900,6.13
3783,OK,Haskell,74400,7.64
3784,OK,Haskell,74500,7.64
3785,OK,Haskell,74900,7.64
3786,OK,Adair,74400,5.91
3787,OK,Adair,74900,5.91
3788,OK,Pushmataha,74500,7.58
3789,OK,Atoka,74500,6.36
3790,OK,Hughes,74500,7.23
3791,OK,Hughes,74800,7.23
3792,OK,Coal,74500,7.39
3793,OK,Latimer,74500,7.87
3794,OK,Kay,74600,5.50
3795,OK,Choctaw,74700,7.42
3796,OK,Pottawatomie,74800,4.35
3797,OK,Seminole,74800,6.58
3798,OK,Pontotoc,74800,3.88
3799,OK,Okfuskee,74800,5.70
3800,TX,Dallas,75000,4.27
3801,TX,Dallas,75100,4.27
3802,TX,Dallas,75200,4.27
3803,TX,Dallas,75300,4.27
3804,TX,Collin,75000,3.65
3805,TX,Collin,75100,3.65
3806,TX,Collin,75400,3.65
3807,TX,Denton,75000,3.57
3808,TX,Denton,76200,3.57
3809,TX,Grayson,75000,4.00
3810,TX,Grayson,75400,4.00
3811,TX,Grayson,76200,4.00
3812,TX,Rockwall,75000,3.77
3813,TX,Rockwall,75100,3.77
3814,TX,Ellis,75100,3.95
3815,TX,Ellis,76000,3.95
3816,TX,Ellis,76600,3.95
3817,TX,Navarro,75100,4.27
3818,TX,Navarro,76600,4.27
3819,TX,Kaufman,75100,4.08
3820,TX,Henderson,75100,4.92
3821,TX,Henderson,75700,4.92
3822,TX,Hunt,75100,4.69
3823,TX,Hunt,75400,4.69
3824,TX,Wood,75400,5.34
3825,TX,Wood,75700,5.34
3826,TX,Lamar,75400,4.82
3827,TX,Fannin,75400,4.16
3828,TX,Delta,75400,4.63
3829,TX,Hopkins,75400,4.23
3830,TX,Rains,75400,4.58
3831,TX,Camp,75400,6.25
3832,TX,Camp,75600,6.25
3833,TX,Titus,75400,5.84
3834,TX,Titus,75500,5.84
3835,TX,Franklin,75400,4.97
3836,TX,Bowie,75500,4.85
3837,TX,Cass,75500,6.90
3838,TX,Cass,75600,6.90
3839,TX,Marion,75500,6.54
3840,TX,Marion,75600,6.54
3841,TX,Morris,75500,8.88
3842,TX,Morris,75600,8.88
3843,TX,Gregg,75600,4.97
3844,TX,Panola,75600,5.25
3845,TX,Upshur,75600,5.27
3846,TX,Upshur,75700,5.27
3847,TX,Harrison,75600,5.30
3848,TX,Rusk,75600,4.75
3849,TX,Smith,75700,4.52
3850,TX,Cherokee,75700,5.21
3851,TX,Cherokee,75900,5.21
3852,TX,Nacogdoches,75700,4.73
3853,TX,Nacogdoches,75900,4.73
3854,TX,Anderson,75700,3.98
3855,TX,Anderson,75800,3.98
3856,TX,Leon,75800,5.35
3857,TX,Leon,77800,5.35
3858,TX,Trinity,75800,5.96
3859,TX,Trinity,75900,5.96
3860,TX,Houston,75800,4.54
3861,TX,Freestone,75800,5.45
3862,TX,Freestone,76600,5.45
3863,TX,Madison,75800,4.30
3864,TX,Madison,77800,4.30
3865,TX,Angelina,75900,5.62
3866,TX,Newton,75900,7.45
3867,TX,Newton,77600,7.45
3868,TX,Sabine,75900,9.44
3869,TX,Polk,75900,6.13
3870,TX,Polk,77300,6.13
3871,TX,Shelby,75900,5.32
3872,TX,Tyler,75900,7.09
3873,TX,Tyler,77600,7.09
3874,TX,Jasper,75900,7.55
3875,TX,Jasper,77600,7.55
3876,TX,Tarrant,76000,4.14
3877,TX,Tarrant,76100,4.14
3878,TX,Tarrant,76200,4.14
3879,TX,Parker,76000,4.17
3880,TX,Parker,76400,4.17
3881,TX,Johnson,76000,4.37
3882,TX,Wise,76000,4.65
3883,TX,Wise,76200,4.65
3884,TX,Wise,76400,4.65
3885,TX,Hood,76000,4.52
3886,TX,Hood,76400,4.52
3887,TX,Somervell,76000,4.99
3888,TX,Hill,76000,4.61
3889,TX,Hill,76600,4.61
3890,TX,Clay,76200,4.43
3891,TX,Clay,76300,4.43
3892,TX,Montague,76200,4.27
3893,TX,Cooke,76200,3.68
3894,TX,Wichita,76300,4.32
3895,TX,Archer,76300,4.44
3896,TX,Knox,76300,3.81
3897,TX,Knox,79500,3.81
3898,TX,Wilbarger,76300,4.89
3899,TX,Wilbarger,79200,4.89
3900,TX,Young,76300,4.34
3901,TX,Young,76400,4.34
3902,TX,Baylor,76300,3.58
3903,TX,Haskell,76300,3.51
3904,TX,Haskell,79500,3.51
3905,TX,Erath,76400,3.92
3906,TX,Stephens,76400,4.25
3907,TX,Jack,76400,4.27
3908,TX,Shackelford,76400,2.84
3909,TX,Brown,76400,4.37
3910,TX,Brown,76800,4.37
3911,TX,Eastland,76400,4.78
3912,TX,Hamilton,76400,4.68
3913,TX,Hamilton,76500,4.68
3914,TX,Comanche,76400,4.31
3915,TX,Callahan,76400,4.27
3916,TX,Callahan,79500,4.27
3917,TX,Throckmorton,76400,3.28
3918,TX,Bell,76500,4.68
3919,TX,Milam,76500,5.29
3920,TX,Milam,77800,5.29
3921,TX,Coryell,76500,4.78
3922,TX,Williamson,76500,3.46
3923,TX,Williamson,78600,3.46
3924,TX,Williamson,78700,3.46
3925,TX,Lampasas,76500,4.43
3926,TX,Lampasas,76800,4.43
3927,TX,Falls,76500,4.28
3928,TX,Falls,76600,4.28
3929,TX,Robertson,76600,4.83
3930,TX,Robertson,77800,4.83
3931,TX,Bosque,76600,4.55
3932,TX,Limestone,76600,5.08
3933,TX,Mason,76800,3.85
3934,TX,Runnels,76800,3.74
3935,TX,Runnels,79500,3.74
3936,TX,Coleman,76800,5.63
3937,TX,Coleman,79500,5.63
3938,TX,Llano,76800,4.30
3939,TX,Llano,78600,4.30
3940,TX,Concho,76800,3.28
3941,TX,Concho,76900,3.28
3942,TX,Menard,76800,5.24
3943,TX,Mills,76800,3.64
3944,TX,Kimble,76800,3.71
3945,TX,Edwards,76800,4.69
3946,TX,Edwards,78800,4.69
3947,TX,Irion,76900,3.64
3948,TX,Reagan,76900,4.59
3949,TX,Coke,76900,4.15
3950,TX,Schleicher,76900,4.68
3951,TX,Crockett,76900,5.88
3952,TX,Sutton,76900,6.04
3953,TX,Sterling,76900,3.44
3954,TX,Harris,77000,4.62
3955,TX,Harris,77200,4.62
3956,TX,Harris,77300,4.62
3957,TX,Harris,77400,4.62
3958,TX,Harris,77500,4.62
3959,TX,Montgomery,77300,4.27
3960,TX,Walker,77300,5.11
3961,TX,Liberty,77300,6.87
3962,TX,Liberty,77500,6.87
3963,TX,Grimes,77300,5.40
3964,TX,Grimes,77800,5.40
3965,TX,Hardin,77300,5.63
3966,TX,Hardin,77500,5.63
3967,TX,Hardin,77600,5.63
3968,TX,Matagorda,77400,6.79
3969,TX,Colorado,77400,3.99
3970,TX,Colorado,78900,3.99
3971,TX,Austin,77400,4.57
3972,TX,Austin,78900,4.57
3973,TX,Wharton,77400,4.45
3974,TX,Brazoria,77400,4.54
3975,TX,Brazoria,77500,4.54
3976,TX,Waller,77400,4.84
3977,TX,Washington,77400,4.83
3978,TX,Washington,77800,4.83
3979,TX,Galveston,77500,4.99
3980,TX,Galveston,77600,4.99
3981,TX,Chambers,77500,5.30
3982,TX,Chambers,77600,5.30
3983,TX,Orange,77600,6.53
3984,TX,Jefferson,77600,6.98
3985,TX,Jefferson,77700,6.98
3986,TX,Brazos,77800,3.39
3987,TX,Burleson,77800,4.43
3988,TX,Lee,77800,3.58
3989,TX,Lee,78900,3.58
3990,TX,Victoria,77900,4.14
3991,TX,Refugio,77900,5.33
3992,TX,Refugio,78300,5.33
3993,TX,Jackson,77900,3.78
3994,TX,Goliad,77900,4.37
3995,TX,Goliad,78100,4.37
3996,TX,Lavaca,77900,3.85
3997,TX,Calhoun,77900,3.85
3998,TX,Bexar,78000,3.83
3999,TX,Bexar,78100,3.83
4000,TX,Bexar,78200,3.83
4001,TX,Bandera,78000,3.98
4002,TX,Bandera,78800,3.98
4003,TX,Kendall,78000,3.28
4004,TX,Frio,78000,3.84
4005,TX,Atascosa,78000,4.78
4006,TX,Medina,78000,4.38
4007,TX,Medina,78800,4.38
4008,TX,Kerr,78000,3.72
4009,TX,Webb,78000,4.74
4010,TX,Webb,78300,4.74
4011,TX,Zapata,78000,7.71
4012,TX,Zapata,78500,7.71
4013,TX,Comal,78000,3.73
4014,TX,Comal,78100,3.73
4015,TX,Comal,78200,3.73
4016,TX,Comal,78600,3.73
4017,TX,Bee,78100,6.27
4018,TX,Bee,78300,6.27
4019,TX,Guadalupe,78100,3.55
4020,TX,Guadalupe,78600,3.55
4021,TX,Karnes,78100,4.25
4022,TX,Wilson,78100,3.82
4023,TX,Gonzales,78100,3.74
4024,TX,Gonzales,78600,3.74
4025,TX,Gonzales,78900,3.74
4026,TX,Nueces,78300,4.93
4027,TX,Nueces,78400,4.93
4028,TX,Kenedy,78300,2.99
4029,TX,Duval,78300,8.24
4030,TX,Brooks,78300,9.99
4031,TX,Aransas,78300,5.08
4032,TX,Kleberg,78300,6.07
4033,TX,Hidalgo,78500,7.93
4034,TX,Cameron,78500,7.11
4035,TX,Starr,78500,13.59
4036,TX,Willacy,78500,13.09
4037,TX,Bastrop,78600,3.87
4038,TX,Bastrop,78900,3.87
4039,TX,Burnet,78600,3.68
4040,TX,Blanco,78600,3.14
4041,TX,Hays,78600,3.46
4042,TX,Caldwell,78600,4.31
4043,TX,Gillespie,78600,2.91
4044,TX,Uvalde,78800,5.07
4045,TX,Dimmit,78800,4.73
4046,TX,Zavala,78800,11.11
4047,TX,Kinney,78800,6.57
4048,TX,Real,78800,5.28
4049,TX,Terrell,78800,4.96
4050,TX,Terrell,79800,4.96
4051,TX,Maverick,78800,10.71
4052,TX,Fayette,78900,3.36
4053,TX,Oldham,79000,3.01
4054,TX,Gray,79000,5.67
4055,TX,Wheeler,79000,3.92
4056,TX,Lipscomb,79000,3.94
4057,TX,Hutchinson,79000,4.48
4058,TX,Parmer,79000,2.44
4059,TX,Parmer,79300,2.44
4060,TX,Potter,79000,3.37
4061,TX,Potter,79100,3.37
4062,TX,Moore,79000,3.17
4063,TX,Hemphill,79000,3.19
4064,TX,Randall,79000,2.93
4065,TX,Randall,79100,2.93
4066,TX,Hartley,79000,2.13
4067,TX,Armstrong,79000,2.68
4068,TX,Hale,79000,6.43
4069,TX,Hale,79200,6.43
4070,TX,Hale,79300,6.43
4071,TX,Dallam,79000,2.25
4072,TX,Castro,79000,3.45
4073,TX,Lamb,79000,9.01
4074,TX,Lamb,79300,9.01
4075,TX,Ochiltree,79000,4.28
4076,TX,Carson,79000,3.21
4077,TX,Hansford,79000,2.97
4078,TX,Swisher,79000,4.81
4079,TX,Roberts,79000,4.08
4080,TX,Collingsworth,79000,3.64
4081,TX,Collingsworth,79200,3.64
4082,TX,Sherman,79000,2.86
4083,TX,Childress,79200,3.17
4084,TX,Dickens,79200,4.64
4085,TX,Dickens,79300,4.64
4086,TX,Floyd,79200,5.58
4087,TX,Cottle,79200,7.20
4088,TX,Hardeman,79200,5.00
4089,TX,Donley,79200,4.23
4090,TX,Foard,79200,4.33
4091,TX,King,79200,3.10
4092,TX,Hall,79200,5.45
4093,TX,Motley,79200,3.73
4094,TX,Briscoe,79200,3.85
4095,TX,Hockley,79300,4.20
4096,TX,Cochran,79300,5.12
4097,TX,Terry,79300,4.73
4098,TX,Bailey,79300,4.29
4099,TX,Crosby,79300,4.37
4100,TX,Yoakum,79300,3.76
4101,TX,Lubbock,79300,3.42
4102,TX,Lubbock,79400,3.42
4103,TX,Garza,79300,3.73
4104,TX,Dawson,79300,4.55
4105,TX,Dawson,79700,4.55
4106,TX,Gaines,79300,3.24
4107,TX,Lynn,79300,4.02
4108,TX,Jones,79500,5.49
4109,TX,Stonewall,79500,4.34
4110,TX,Nolan,79500,4.11
4111,TX,Taylor,79500,3.69
4112,TX,Taylor,79600,3.69
4113,TX,Howard,79500,4.67
4114,TX,Howard,79700,4.67
4115,TX,Mitchell,79500,5.73
4116,TX,Scurry,79500,4.13
4117,TX,Kent,79500,2.57
4118,TX,Fisher,79500,3.93
4119,TX,Midland,79700,3.47
4120,TX,Andrews,79700,3.47
4121,TX,Reeves,79700,4.82
4122,TX,Ward,79700,4.30
4123,TX,Pecos,79700,5.17
4124,TX,Crane,79700,5.78
4125,TX,Borden,79700,2.84
4126,TX,Glasscock,79700,2.88
4127,TX,Ector,79700,4.62
4128,TX,Winkler,79700,5.73
4129,TX,Martin,79700,3.54
4130,TX,Upton,79700,3.87
4131,TX,Loving,79700,4.80
4132,TX,El Paso,79800,5.23
4133,TX,El Paso,79900,5.23
4134,TX,El Paso,88500,5.23
4135,TX,Brewster,79800,4.03
4136,TX,Hudspeth,79800,5.74
4137,TX,Presidio,79800,10.84
4138,TX,Culberson,79800,4.30
4139,CO,Jefferson,80000,3.52
4140,CO,Jefferson,80100,3.52
4141,CO,Jefferson,80200,3.52
4142,CO,Jefferson,80400,3.52
4143,CO,Arapahoe,80000,3.73
4144,CO,Arapahoe,80100,3.73
4145,CO,Adams,80000,4.32
4146,CO,Adams,80100,4.32
4147,CO,Adams,80200,4.32
4148,CO,Adams,80600,4.32
4149,CO,Boulder,80000,3.18
4150,CO,Boulder,80300,3.18
4151,CO,Boulder,80400,3.18
4152,CO,Boulder,80500,3.18
4153,CO,Elbert,80100,3.14
4154,CO,Elbert,80800,3.14
4155,CO,Douglas,80100,3.10
4156,CO,El Paso,80100,4.62
4157,CO,El Paso,80800,4.62
4158,CO,El Paso,80900,4.62
4159,CO,Denver,80200,3.71
4160,CO,Park,80400,3.44
4161,CO,Park,80800,3.44
4162,CO,Gilpin,80400,3.11
4163,CO,Eagle,80400,3.13
4164,CO,Eagle,81600,3.13
4165,CO,Summit,80400,2.53
4166,CO,Routt,80400,3.23
4167,CO,Routt,81600,3.23
4168,CO,Lake,80400,3.82
4169,CO,Lake,81200,3.82
4170,CO,Jackson,80400,3.71
4171,CO,Clear Creek,80400,3.67
4172,CO,Grand,80400,3.18
4173,CO,Weld,80500,3.82
4174,CO,Weld,80600,3.82
4175,CO,Weld,80700,3.82
4176,CO,Larimer,80500,3.29
4177,CO,Morgan,80600,3.80
4178,CO,Morgan,80700,3.80
4179,CO,Washington,80700,2.57
4180,CO,Washington,80800,2.57
4181,CO,Phillips,80700,2.39
4182,CO,Logan,80700,3.10
4183,CO,Yuma,80700,2.66
4184,CO,Yuma,80800,2.66
4185,CO,Sedgwick,80700,3.36
4186,CO,Cheyenne,80800,2.71
4187,CO,Lincoln,80800,3.42
4188,CO,Kit Carson,80800,2.43
4189,CO,Teller,80800,4.43
4190,CO,Pueblo,81000,5.65
4191,CO,Las Animas,81000,5.60
4192,CO,Kiowa,81000,2.66
4193,CO,Baca,81000,2.07
4194,CO,Otero,81000,5.80
4195,CO,Crowley,81000,4.47
4196,CO,Bent,81000,3.93
4197,CO,Huerfano,81000,7.72
4198,CO,Prowers,81000,4.07
4199,CO,Alamosa,81100,5.16
4200,CO,Conejos,81100,5.61
4201,CO,Archuleta,81100,4.05
4202,CO,La Plata,81100,3.46
4203,CO,La Plata,81300,3.46
4204,CO,Costilla,81100,6.49
4205,CO,Saguache,81100,6.10
4206,CO,Saguache,81200,6.10
4207,CO,Mineral,81100,3.62
4208,CO,Rio Grande,81100,6.29
4209,CO,Chaffee,81200,3.42
4210,CO,Gunnison,81200,2.93
4211,CO,Gunnison,81400,2.93
4212,CO,Fremont,81200,6.18
4213,CO,Montrose,81200,5.07
4214,CO,Montrose,81400,5.07
4215,CO,Hinsdale,81200,3.05
4216,CO,Custer,81200,3.56
4217,CO,Dolores,81300,3.10
4218,CO,Montezuma,81300,5.63
4219,CO,San Miguel,81300,3.82
4220,CO,San Miguel,81400,3.82
4221,CO,Delta,81400,5.71
4222,CO,Ouray,81400,4.29
4223,CO,San Juan,81400,4.43
4224,CO,Mesa,81500,5.56
4225,CO,Mesa,81600,5.56
4226,CO,Garfield,81600,4.12
4227,CO,Moffat,81600,4.49
4228,CO,Pitkin,81600,3.88
4229,CO,Rio Blanco,81600,5.28
4230,WY,Laramie,82000,3.87
4231,WY,Albany,82000,3.06
4232,WY,Park,82100,4.21
4233,WY,Park,82400,4.21
4234,WY,Platte,82200,3.82
4235,WY,Goshen,82200,3.19
4236,WY,Niobrara,82200,2.88
4237,WY,Converse,82200,3.59
4238,WY,Converse,82600,3.59
4239,WY,Carbon,82300,3.62
4240,WY,Carbon,82600,3.62
4241,WY,Fremont,82300,5.43
4242,WY,Fremont,82500,5.43
4243,WY,Fremont,82600,5.43
4244,WY,Sweetwater,82300,4.59
4245,WY,Sweetwater,82900,4.59
4246,WY,Washakie,82400,4.03
4247,WY,Natrona,82600,4.80
4248,WY,Johnson,82600,4.82
4249,WY,Johnson,82800,4.82
4250,WY,Weston,82700,3.32
4251,WY,Crook,82700,3.43
4252,WY,Campbell,82700,3.81
4253,WY,Sheridan,82800,4.15
4254,WY,Sublette,82900,5.13
4255,WY,Sublette,83100,5.13
4256,WY,Uinta,82900,4.88
4257,WY,Teton,83000,3.90
4258,WY,Lincoln,83100,4.64
4259,ID,Bannock,83200,3.97
4260,ID,Bingham,83200,4.09
4261,ID,Power,83200,4.65
4262,ID,Butte,83200,4.38
4263,ID,Caribou,83200,4.18
4264,ID,Custer,83200,6.80
4265,ID,Franklin,83200,3.07
4266,ID,Lemhi,83200,7.02
4267,ID,Lemhi,83400,7.02
4268,ID,Oneida,83200,3.51
4269,ID,Cassia,83300,3.35
4270,ID,Blaine,83300,3.53
4271,ID,Gooding,83300,3.41
4272,ID,Camas,83300,3.58
4273,ID,Lincoln,83300,4.43
4274,ID,Jerome,83300,3.28
4275,ID,Minidoka,83300,3.67
4276,ID,Bonneville,83400,3.45
4277,ID,Fremont,83400,3.57
4278,ID,Teton,83400,3.47
4279,ID,Clark,83400,3.65
4280,ID,Jefferson,83400,3.38
4281,ID,Madison,83400,2.71
4282,ID,Clearwater,83500,8.06
4283,ID,Clearwater,83800,8.06
4284,ID,Idaho,83500,6.13
4285,ID,Idaho,83600,6.13
4286,ID,Lewis,83500,6.03
4287,ID,Latah,83500,3.47
4288,ID,Latah,83800,3.47
4289,ID,Elmore,83600,4.68
4290,ID,Boise,83600,6.22
4291,ID,Owyhee,83600,4.68
4292,ID,Canyon,83600,4.93
4293,ID,Washington,83600,5.75
4294,ID,Valley,83600,6.18
4295,ID,Adams,83600,7.73
4296,ID,Ada,83600,3.59
4297,ID,Ada,83700,3.59
4298,ID,Gem,83600,5.11
4299,ID,Payette,83600,4.95
4300,ID,Kootenai,83800,4.97
4301,ID,Shoshone,83800,7.73
4302,ID,Bonner,83800,5.93
4303,ID,Boundary,83800,5.38
4304,ID,Benewah,83800,6.58
4305,UT,Duchesne,84000,7.34
4306,UT,Utah,84000,3.19
4307,UT,Utah,84600,3.19
4308,UT,Uintah,84000,6.60
4309,UT,Davis,84000,3.32
4310,UT,Summit,84000,3.28
4311,UT,Morgan,84000,3.10
4312,UT,Tooele,84000,4.08
4313,UT,Daggett,84000,4.68
4314,UT,Rich,84000,3.64
4315,UT,Wasatch,84000,3.41
4316,UT,Weber,84000,4.01
4317,UT,Weber,84200,4.01
4318,UT,Weber,84300,4.01
4319,UT,Weber,84400,4.01
4320,UT,Cache,84300,2.98
4321,UT,Carbon,84500,5.60
4322,UT,San Juan,84500,7.77
4323,UT,Emery,84500,5.98
4324,UT,Grand,84500,6.17
4325,UT,Sevier,84600,4.39
4326,UT,Sevier,84700,4.39
4327,UT,Sanpete,84600,4.04
4328,UT,Millard,84600,3.49
4329,UT,Millard,84700,3.49
4330,UT,Juab,84600,3.87
4331,UT,Kane,84700,4.48
4332,UT,Garfield,84700,9.07
4333,UT,Beaver,84700,3.73
4334,UT,Iron,84700,4.38
4335,UT,Wayne,84700,9.17
4336,UT,Washington,84700,3.97
4337,UT,Piute,84700,6.48
4338,AZ,Maricopa,85000,5.17
4339,AZ,Maricopa,85200,5.17
4340,AZ,Maricopa,85300,5.17
4341,AZ,Pinal,85200,6.32
4342,AZ,Pinal,85600,6.32
4343,AZ,Gila,85200,7.96
4344,AZ,Gila,85500,7.96
4345,AZ,Pima,85300,5.54
4346,AZ,Pima,85600,5.54
4347,AZ,Pima,85700,5.54
4348,AZ,Yavapai,85300,5.57
4349,AZ,Yavapai,86300,5.57
4350,AZ,Yuma,85300,21.72
4351,AZ,Mohave,85300,8.03
4352,AZ,Mohave,86000,8.03
4353,AZ,Mohave,86400,8.03
4354,AZ,Graham,85500,7.42
4355,AZ,Greenlee,85500,7.93
4356,AZ,Greenlee,85900,7.93
4357,AZ,Cochise,85600,7.42
4358,AZ,Navajo,85900,9.69
4359,AZ,Navajo,86000,9.69
4360,AZ,Navajo,86500,9.69
4361,AZ,Apache,85900,13.40
4362,AZ,Apache,86000,13.40
4363,AZ,Apache,86500,13.40
4364,AZ,Coconino,85900,6.56
4365,AZ,Coconino,86000,6.56
4366,AZ,Coconino,86300,6.56
4367,AZ,Coconino,86400,6.56
4368,NM,Sandoval,87000,6.72
4369,NM,Sandoval,87100,6.72
4370,NM,Valencia,87000,7.48
4371,NM,Cibola,87000,7.91
4372,NM,Cibola,87300,7.91
4373,NM,Bernalillo,87000,5.93
4374,NM,Bernalillo,87100,5.93
4375,NM,Bernalillo,87200,5.93
4376,NM,Torrance,87000,9.03
4377,NM,Torrance,88300,9.03
4378,NM,Socorro,87000,7.58
4379,NM,Socorro,87800,7.58
4380,NM,San Juan,87000,7.04
4381,NM,San Juan,87300,7.04
4382,NM,San Juan,87400,7.04
4383,NM,Taos,87500,9.27
4384,NM,San Miguel,87500,7.73
4385,NM,San Miguel,87700,7.73
4386,NM,San Miguel,88400,7.73
4387,NM,Colfax,87700,6.15
4388,NM,Guadalupe,87700,7.14
4389,NM,Guadalupe,88300,7.14
4390,NM,Guadalupe,88400,7.14
4391,NM,Mora,87700,9.74
4392,NM,Harding,87700,8.44
4393,NM,Catron,87800,8.01
4394,NM,Catron,88000,8.01
4395,NM,Sierra,87900,9.19
4396,NM,Sierra,88000,9.19
4397,NM,Hidalgo,88000,6.29
4398,NM,Grant,88000,6.58
4399,NM,Luna,88000,17.62
4400,NM,Curry,88100,4.93
4401,NM,Roosevelt,88100,5.51
4402,NM,Lea,88100,6.23
4403,NM,Lea,88200,6.23
4404,NM,Quay,88100,7.21
4405,NM,Quay,88400,7.21
4406,NM,Chaves,88200,6.35
4407,NM,Eddy,88200,4.90
4408,NM,Lincoln,88300,5.82
4409,NM,Otero,88300,6.23
4410,NM,Union,88400,4.44
4411,NV,Clark,88900,6.80
4412,NV,Clark,89000,6.80
4413,NV,Clark,89100,6.80
4414,NV,Lincoln,89000,6.22
4415,NV,Nye,89000,8.68
4416,NV,Nye,89400,8.68
4417,NV,Esmeralda,89000,4.60
4418,NV,Lander,89300,6.52
4419,NV,Lander,89800,6.52
4420,NV,Eureka,89300,6.02
4421,NV,Eureka,89800,6.02
4422,NV,Washoe,89400,6.26
4423,NV,Washoe,89500,6.26
4424,NV,Washoe,89700,6.26
4425,NV,Lyon,89400,9.42
4426,NV,Humboldt,89400,5.88
4427,NV,Churchill,89400,7.02
4428,NV,Douglas,89400,6.76
4429,NV,Douglas,89700,6.76
4430,NV,Mineral,89400,10.48
4431,NV,Pershing,89400,6.83
4432,NV,Storey,89400,7.30
4433,NV,Carson City,89700,7.25
4434,NV,Elko,89800,5.20
4435,CA,Orange,90600,4.48
4436,CA,Orange,90700,4.48
4437,CA,Orange,92600,4.48
4438,CA,Orange,92700,4.48
4439,CA,Orange,92800,4.48
4440,CA,Ventura,91300,5.68
4441,CA,Ventura,93000,5.68
4442,CA,Riverside,91700,6.72
4443,CA,Riverside,92200,6.72
4444,CA,Riverside,92300,6.72
4445,CA,Riverside,92500,6.72
4446,CA,Riverside,92800,6.72
4447,CA,Imperial,92200,24.02
4448,CA,Inyo,92300,5.82
4449,CA,Inyo,93500,5.82
4450,CA,Tulare,93200,11.68
4451,CA,Tulare,93600,11.68
4452,CA,Kings,93200,10.50
4453,CA,Kern,93200,10.21
4454,CA,Kern,93300,10.21
4455,CA,Kern,93500,10.21
4456,CA,Fresno,93200,10.18
4457,CA,Fresno,93600,10.18
4458,CA,Fresno,93700,10.18
4459,CA,Fresno,93800,10.18
4460,CA,Monterey,93400,8.16
4461,CA,Monterey,93900,8.16
4462,CA,Monterey,95000,8.16
4463,CA,Mono,93500,6.16
4464,CA,Mono,96100,6.16
4465,CA,Madera,93600,10.47
4466,CA,Merced,93600,11.36
4467,CA,Merced,95300,11.36
4468,CA,Mariposa,93600,7.31
4469,CA,Mariposa,95300,7.31
4470,CA,Sacramento,94200,6.00
4471,CA,Sacramento,95600,6.00
4472,CA,Sacramento,95700,6.00
4473,CA,Sacramento,95800,6.00
4474,CA,Alameda,94500,4.74
4475,CA,Alameda,94600,4.74
4476,CA,Alameda,94700,4.74
4477,CA,Napa,94500,4.62
4478,CA,Solano,94500,6.13
4479,CA,Solano,95600,6.13
4480,CA,Marin,94900,3.54
4481,CA,Sonoma,94900,4.49
4482,CA,Sonoma,95400,4.49
4483,CA,Calaveras,95200,6.43
4484,CA,Tuolumne,95300,7.13
4485,CA,Stanislaus,95300,9.51
4486,CA,Mendocino,95400,5.85
4487,CA,Mendocino,95500,5.85
4488,CA,Lake,95400,7.66
4489,CA,Humboldt,95500,5.64
4490,CA,Trinity,95500,7.86
4491,CA,Trinity,96000,7.86
4492,CA,Siskiyou,95500,9.41
4493,CA,Siskiyou,96000,9.41
4494,CA,Siskiyou,96100,9.41
4495,CA,Amador,95600,6.63
4496,CA,Placer,95600,5.04
4497,CA,Placer,95700,5.04
4498,CA,Placer,96100,5.04
4499,CA,Yolo,95600,6.43
4500,CA,Yolo,95700,6.43
4501,CA,Yolo,95900,6.43
4502,CA,Alpine,95600,8.03
4503,CA,Alpine,96100,8.03
4504,CA,Sutter,95600,10.78
4505,CA,Sutter,95900,10.78
4506,CA,Yuba,95600,9.25
4507,CA,Yuba,95900,9.25
4508,CA,Nevada,95700,5.46
4509,CA,Nevada,95900,5.46
4510,CA,Nevada,96100,5.46
4511,CA,Sierra,95900,8.96
4512,CA,Sierra,96100,8.96
4513,CA,Colusa,95900,15.48
4514,CA,Glenn,95900,8.75
4515,CA,Butte,95900,7.20
4516,CA,Plumas,95900,10.45
4517,CA,Plumas,96000,10.45
4518,CA,Plumas,96100,10.45
4519,CA,Shasta,96000,7.81
4520,CA,Modoc,96000,8.79
4521,CA,Modoc,96100,8.79
4522,CA,Lassen,96000,7.27
4523,CA,Lassen,96100,7.27
4524,CA,Tehama,96000,7.96
4525,HI,Honolulu,96700,3.39
4526,HI,Honolulu,96800,3.39
4527,HI,Kauai,96700,4.09
4528,HI,Hawaii,96700,4.47
4529,HI,Maui,96700,3.77
4530,OR,Wasco,97000,5.80
4531,OR,Marion,97000,6.10
4532,OR,Marion,97100,6.10
4533,OR,Marion,97300,6.10
4534,OR,Clackamas,97000,5.22
4535,OR,Clackamas,97200,5.22
4536,OR,Washington,97000,4.77
4537,OR,Washington,97100,4.77
4538,OR,Washington,97200,4.77
4539,OR,Multnomah,97000,4.98
4540,OR,Multnomah,97200,4.98
4541,OR,Columbia,97000,7.22
4542,OR,Sherman,97000,6.27
4543,OR,Yamhill,97100,5.34
4544,OR,Yamhill,97300,5.34
4545,OR,Clatsop,97100,5.58
4546,OR,Tillamook,97100,5.78
4547,OR,Polk,97300,5.72
4548,OR,Linn,97300,6.89
4549,OR,Linn,97400,6.89
4550,OR,Benton,97300,4.30
4551,OR,Benton,97400,4.30
4552,OR,Lincoln,97300,6.77
4553,OR,Lincoln,97400,6.77
4554,OR,Lane,97400,5.96
4555,OR,Curry,97400,8.49
4556,OR,Coos,97400,7.55
4557,OR,Douglas,97400,7.66
4558,OR,Klamath,97400,8.00
4559,OR,Klamath,97600,8.00
4560,OR,Klamath,97700,8.00
4561,OR,Josephine,97400,7.86
4562,OR,Josephine,97500,7.86
4563,OR,Jackson,97500,6.92
4564,OR,Lake,97600,7.87
4565,OR,Lake,97700,7.87
4566,OR,Deschutes,97700,5.97
4567,OR,Harney,97700,7.32
4568,OR,Harney,97900,7.32
4569,OR,Jefferson,97700,7.44
4570,OR,Wheeler,97700,5.22
4571,OR,Wheeler,97800,5.22
4572,OR,Crook,97700,8.52
4573,OR,Umatilla,97800,6.52
4574,OR,Gilliam,97800,6.59
4575,OR,Baker,97800,6.91
4576,OR,Baker,97900,6.91
4577,OR,Grant,97800,8.93
4578,OR,Morrow,97800,5.82
4579,OR,Union,97800,6.33
4580,OR,Wallowa,97800,7.98
4581,OR,Malheur,97900,6.47
4582,WA,King,98000,4.44
4583,WA,King,98100,4.44
4584,WA,King,98200,4.44
4585,WA,Snohomish,98000,4.83
4586,WA,Snohomish,98200,4.83
4587,WA,Kitsap,98000,5.49
4588,WA,Kitsap,98100,5.49
4589,WA,Kitsap,98300,5.49
4590,WA,Whatcom,98200,5.94
4591,WA,Skagit,98200,6.67
4592,WA,San Juan,98200,4.85
4593,WA,Island,98200,6.02
4594,WA,Pierce,98300,6.35
4595,WA,Pierce,98400,6.35
4596,WA,Pierce,98500,6.35
4597,WA,Clallam,98300,7.99
4598,WA,Jefferson,98300,7.07
4599,WA,Lewis,98300,8.33
4600,WA,Lewis,98500,8.33
4601,WA,Thurston,98500,5.91
4602,WA,Mason,98500,7.66
4603,WA,Pacific,98500,9.14
4604,WA,Pacific,98600,9.14
4605,WA,Cowlitz,98500,7.58
4606,WA,Cowlitz,98600,7.58
4607,WA,Clark,98600,6.34
4608,WA,Klickitat,98600,7.17
4609,WA,Klickitat,99300,7.17
4610,WA,Skamania,98600,7.23
4611,WA,Wahkiakum,98600,9.08
4612,WA,Chelan,98800,5.53
4613,WA,Douglas,98800,6.33
4614,WA,Okanogan,98800,7.03
4615,WA,Okanogan,99100,7.03
4616,WA,Grant,98800,7.17
4617,WA,Grant,99100,7.17
4618,WA,Grant,99300,7.17
4619,WA,Yakima,98900,8.03
4620,WA,Kittitas,98900,6.14
4621,WA,Spokane,99000,6.40
4622,WA,Spokane,99200,6.40
4623,WA,Lincoln,99000,5.77
4624,WA,Lincoln,99100,5.77
4625,WA,Stevens,99000,8.76
4626,WA,Stevens,99100,8.76
4627,WA,Whitman,99000,4.68
4628,WA,Whitman,99100,4.68
4629,WA,Whitman,99300,4.68
4630,WA,Adams,99100,6.93
4631,WA,Adams,99300,6.93
4632,WA,Ferry,99100,10.20
4633,WA,Franklin,99300,7.53
4634,WA,Benton,99300,6.58
4635,WA,Columbia,99300,6.38
4636,WA,Garfield,99300,6.19
4637,WA,Asotin,99400,4.70
4638,AK,Anchorage,99500,5.00
4639,AK,Anchorage,99600,5.00
4640,AK,Aleutians West,99500,3.80
4641,AK,Aleutians West,99600,3.80
4642,AK,Lake And Peninsula,99500,12.40
4643,AK,Lake And Peninsula,99600,12.40
4644,AK,Kodiak Island,99500,4.80
4645,AK,Kodiak Island,99600,4.80
4646,AK,Bethel,99500,14.20
4647,AK,Bethel,99600,14.20
4648,AK,Aleutians East,99500,3.20
4649,AK,Aleutians East,99600,3.20
4650,AK,Wade Hampton,99500,22.90
4651,AK,Wade Hampton,99600,22.90
4652,AK,Dillingham,99500,9.60
4653,AK,Dillingham,99600,9.60
4654,AK,Kenai Peninsula,99500,7.80
4655,AK,Kenai Peninsula,99600,7.80
4656,AK,Yukon Koyukuk,99500,1.00
4657,AK,Yukon Koyukuk,99600,1.00
4658,AK,Yukon Koyukuk,99700,1.00
4659,AK,Valdez Cordova,99500,8.60
4660,AK,Valdez Cordova,99600,8.60
4661,AK,Bristol Bay,99600,9.20
4662,AK,Matanuska Susitna,99600,7.60
4663,AK,Nome,99600,11.80
4664,AK,Nome,99700,11.80
4665,AK,Yakutat,99600,8.50
4666,AK,Fairbanks North Star,99700,5.40
4667,AK,Denali,99700,8.60
4668,AK,North Slope,99700,5.70
4669,AK,Northwest Arctic,99700,15.90
4670,AK,Southeast Fairbanks,99700,10.50
4671,AK,Juneau,99800,4.70
4672,AK,Skagway Hoonah Angoon,99800,11.40
4673,AK,Haines,99800,9.70
4674,AK,Wrangell Petersburg,99800,7.80
4675,AK,Wrangell Petersburg,99900,7.80
4676,AK,Sitka,99800,4.60
4677,AK,Ketchikan Gateway,99900,6.80
4678,AK,Prince Wales Ketchikan,99900,12.40
